{"type": "FeatureCollection", "name": "winam_gulf_main_lake_aoi", "crs": {"type": "name", "properties": {"name": "urn:ogc:def:crs:OGC:1.3:CRS84"}}, "features": [{"type": "Feature", "properties": {"name": "winam_gulf_main_lake_aoi", "description": "Single-polygon AOI covering only the main Winam Gulf / Lake Victoria water body (no smaller ponds), with the western edge clipped east to focus on the gulf.", "source": "JRC/GSW1_4 occurrence>=5% water mask, largest body only", "buffer_m": 90.0, "west_edge_lon": 34.2046673170698, "clipped_to_bbox": [34.2046673170698, -0.55, 34.9, 0.0], "ponds_dropped": 484, "vertices": 1300, "area_km2": 1552.6}, "geometry": {"type": "Polygon", "coordinates": [[[34.2052470801106, -0.22843846637310922], [34.2046673170698, -0.22745554507334206], [34.2046673170698, -0.43379714939581765], [34.205497095297545, -0.4323115333597413], [34.20555864987063, -0.43075000014353054], [34.20471838191979, -0.42835479419043376], [34.20495497049907, -0.4251249999674511], [34.20714219204416, -0.4217195835753348], [34.20821060399012, -0.4220974355699959], [34.209441352027504, -0.4243344851530168], [34.209691351860954, -0.4271655148766689], [34.208941351489635, -0.42974999999440444], [34.209928199223604, -0.4325756379710557], [34.21144054371875, -0.43400210677036477], [34.213670525099424, -0.43406407394555235], [34.21542820004295, -0.4368256367556594], [34.21844054439815, -0.43825210481904103], [34.22230945538809, -0.438502103738055], [34.22480945507562, -0.4375021030266869], [34.22607947341042, -0.4363140701520636], [34.2271705270087, -0.43631406981791165], [34.23017052734462, -0.4375640688369148], [34.23394054602701, -0.44050210039549537], [34.24067052880474, -0.44081406569881293], [34.24300000015177, -0.4413140648612607], [34.24557179399163, -0.4403256301747192], [34.246497084464885, -0.43931152857300876], [34.24680863801093, -0.43758447911515336], [34.24778014566129, -0.4366441999670472], [34.24892053036501, -0.43681406305505743], [34.2505000000177, -0.4378140625341021], [34.25250000023329, -0.437814061909177], [34.2543354928731, -0.4373140613422776], [34.25375291800334, -0.438938471970347], [34.25369136401483, -0.4405000001502748], [34.25517820817131, -0.4430756280658743], [34.25767053128379, -0.4433140603526999], [34.25919054891734, -0.4442520931507911], [34.26033549568863, -0.4443140595034904], [34.25925291883673, -0.44643847263550146], [34.2591913649136, -0.4480000001503588], [34.26025291869536, -0.4503115270735502], [34.26142820889822, -0.45182562668857296], [34.26369054910565, -0.4532520918346142], [34.26525000019657, -0.45331405786823503], [34.268309450547875, -0.45200209048516077], [34.270000000119836, -0.45062391457171613], [34.27183550178985, -0.4510640558257412], [34.27067821099275, -0.45192437528679424], [34.27019136775802, -0.453499999875699], [34.270252921187755, -0.4543115258646015], [34.27117821078385, -0.455575624516899], [34.2741905501203, -0.45775208872738876], [34.27725000028294, -0.4578140540495242], [34.27909861189854, -0.457294306804297], [34.277441369406745, -0.45924999983505543], [34.27829505280439, -0.4628749999614097], [34.27825292248195, -0.4645615249361805], [34.2786782116541, -0.4655756228023079], [34.27967053298531, -0.46581405327635095], [34.28117821203623, -0.4675756222162156], [34.28347894431605, -0.4688098356962768], [34.28344136991713, -0.47150000035082645], [34.28442821228116, -0.473825621492682], [34.28619055089375, -0.4747520851717387], [34.2894205338426, -0.47506405018132897], [34.29219055157075, -0.4762520833880766], [34.295420534678364, -0.47656404821030224], [34.298440552191046, -0.4780020814875075], [34.30267053576306, -0.47781404584549625], [34.30444055287338, -0.47975207969053985], [34.3066705362919, -0.4798140445912359], [34.30794055331361, -0.48100207865925737], [34.31140835658514, -0.4820456917283663], [34.31217821777141, -0.4835756150927941], [34.31294055380019, -0.4840020771413013], [34.31430944631126, -0.48400207671873346], [34.315892185663316, -0.48296954077148607], [34.318309445779, -0.4835020755096075], [34.31999706725575, -0.48181151959973867], [34.31999706715786, -0.4809384803104384], [34.31882178062142, -0.4794243864036341], [34.31650672747426, -0.4782373672937368], [34.316071781104064, -0.47717438579453564], [34.31503937290412, -0.4766525857743331], [34.31399706812313, -0.47268847965823396], [34.313169907389906, -0.4720722257750471], [34.3125717813781, -0.4709243849529871], [34.31130944598872, -0.4702479222971242], [34.30932946280278, -0.46993595635556773], [34.30755944637759, -0.4684979211608766], [34.30657946314138, -0.4684359554645084], [34.3043294633982, -0.46718595470742735], [34.3038086231363, -0.466314045477286], [34.30707178223269, -0.4655756162558641], [34.30805862146521, -0.46331404409696536], [34.30994055432576, -0.4640020780961805], [34.311059445816504, -0.46400207775021535], [34.312321780827226, -0.46332561506506337], [34.313341641368815, -0.4617956915465065], [34.31480944524017, -0.46125207661617645], [34.316579460696566, -0.4598140413578374], [34.31805944480883, -0.4597520756161155], [34.31907177895985, -0.45907561347525055], [34.32099706408069, -0.45456151946811857], [34.32074835788207, -0.4531249999739041], [34.321058615782974, -0.4506633235487685], [34.322441384650055, -0.4520523018504607], [34.322678222729365, -0.4530756127599386], [34.32337803672472, -0.45349999997553675], [34.3222529365626, -0.4551884804616306], [34.32194138392345, -0.4577500002001209], [34.32225293618542, -0.45881151945075227], [34.32346063172642, -0.4600974130340332], [34.324191384211076, -0.46158446579619583], [34.32494138399746, -0.4638344654746073], [34.325002936343516, -0.4660615192956367], [34.32592822227042, -0.46782561193744415], [34.327080096583934, -0.46842777115743817], [34.328440556321134, -0.4700020724290546], [34.330170541022426, -0.4700640368556637], [34.3346705416258, -0.47156403530312424], [34.33620214603498, -0.472304452196746], [34.33694138704531, -0.473334463310859], [34.33694138689137, -0.4749155366670574], [34.33467822363158, -0.47617439008350104], [34.33394138561576, -0.47749999970383056], [34.334002937623076, -0.4793115180267845], [34.334960632651246, -0.4805974101774721], [34.33594138536545, -0.48333446311054623], [34.33594138520773, -0.48466553687605124], [34.33519138493784, -0.48674999974407496], [34.335502936783485, -0.4908115177346725], [34.336690556440686, -0.4922520698776589], [34.34424327840757, -0.4960126247042924], [34.34425293867779, -0.49781151658262646], [34.3459282242292, -0.5003256071596239], [34.34875000011978, -0.5018140305083988], [34.35155944247604, -0.5015020651997583], [34.353559442109464, -0.5007520646086794], [34.35607177358237, -0.49882560466888776], [34.35674705771839, -0.49731151485496766], [34.35674705758929, -0.4961884850521027], [34.35580860917266, -0.4939155403224556], [34.35605860899712, -0.4920000000766863], [34.355747057294295, -0.4904384850050861], [34.35478936284018, -0.48940259397832503], [34.354308608925734, -0.4879155398875499], [34.354058608791775, -0.4855844601329521], [34.354669899173714, -0.4841777638998117], [34.35575000015084, -0.4843140281868363], [34.35715053675512, -0.48378388340067185], [34.35905944064932, -0.4840020629167736], [34.361341633953884, -0.48229567701344417], [34.36250000012813, -0.4818738801420637], [34.363993285499454, -0.48251261937431034], [34.365440560488864, -0.4840020609283764], [34.367500000181835, -0.48456402419178796], [34.368579453862445, -0.4838140238429], [34.37130943901911, -0.4832520590651977], [34.371997051342525, -0.48256151282219284], [34.37205860232387, -0.48183445706836064], [34.37299705084046, -0.4810615127514171], [34.372997050634226, -0.4791884871581075], [34.37180860203736, -0.4784155427709002], [34.37099705075739, -0.4739384870388559], [34.3700586017578, -0.47141554224802923], [34.37080860099067, -0.46624999944357776], [34.370747049730994, -0.4629384871447045], [34.36882176733352, -0.4606743982524548], [34.367058601516135, -0.45994771032470155], [34.366821767713354, -0.45917439778707114], [34.36562151111655, -0.45828969275060955], [34.367247050034884, -0.45656151355725877], [34.367021022859554, -0.4550598147018976], [34.37130943784255, -0.45475205909372907], [34.37278646744448, -0.45311200822452463], [34.37394056288517, -0.45400205829462037], [34.37508010970682, -0.45417776034706475], [34.37617823509732, -0.45632559996682615], [34.37744056322292, -0.45725205718531564], [34.37850000001158, -0.4575640204825005], [34.382170551012074, -0.457314019275726], [34.383750000012036, -0.4578140186716238], [34.38667055175136, -0.4575640176658592], [34.38917823795833, -0.45982559677282975], [34.39125000012529, -0.4608140160668372], [34.39330943512716, -0.46025205209570946], [34.39399537913279, -0.45931401514192816], [34.39880943435276, -0.45850205031608177], [34.4005794459873, -0.4570640129015844], [34.40317055474823, -0.4568140119445298], [34.403191410540636, -0.4652500003885641], [34.40375296078451, -0.4670615088346851], [34.405190566351685, -0.46850204823520303], [34.40692055447293, -0.4685640106347073], [34.40974080921854, -0.46949999997033653], [34.409580116134556, -0.47007224885727533], [34.408500000132456, -0.470626139114946], [34.406250000083034, -0.46968598919326066], [34.40417824083645, -0.47017440686050666], [34.40344140982435, -0.47224999969144243], [34.40350295999625, -0.47406150895193994], [34.408678240981956, -0.4813255919105378], [34.410158376275284, -0.4817956621195474], [34.41269056670136, -0.4842520457845608], [34.41519056691923, -0.4852520449368077], [34.41794141328316, -0.4855844487389469], [34.41821065697024, -0.4869026068466667], [34.415691411897086, -0.4909999995994513], [34.41575296187221, -0.4933115073420233], [34.41619186717486, -0.49375230504569123], [34.416752961709534, -0.4975615071756886], [34.417428241691276, -0.49907558974395744], [34.41944056684685, -0.5007520435429297], [34.42180943316129, -0.5010020427532357], [34.42359162290053, -0.49854565759341885], [34.42855943199392, -0.4960020405544342], [34.431000000128066, -0.49401394062970405], [34.432690568858476, -0.49475203917171257], [34.434941418139154, -0.49500220844829285], [34.43525296780336, -0.49681150456618844], [34.438045112389936, -0.5011249999616268], [34.43725296788265, -0.5021884955588922], [34.437191417877365, -0.5034155552380595], [34.435170556233906, -0.5064359995570257], [34.43007944505151, -0.5061859978706621], [34.42680943251862, -0.5037479588422215], [34.42494056754482, -0.503747958214901], [34.42425296333433, -0.504688493785576], [34.42419141295564, -0.5059155529360543], [34.42358011480957, -0.5070722541158779], [34.42169056689536, -0.5077479571654776], [34.420752961684386, -0.5086884934358482], [34.420191411151855, -0.509999999684527], [34.41994141064651, -0.5131655523012897], [34.41865054392452, -0.5142161392792692], [34.41669056593273, -0.5142479555340488], [34.4155029593379, -0.5151884924565046], [34.41544140824563, -0.5176655517811513], [34.41450295852101, -0.5184384925979529], [34.41447028154664, -0.5193961295399796], [34.412752957511486, -0.5229384921530277], [34.4126914064075, -0.5247477857524637], [34.41200295690981, -0.525438492205889], [34.412252956690914, -0.5278115076265284], [34.413191861821126, -0.5285023052698777], [34.413928238018016, -0.5305755905652331], [34.41569056482923, -0.5317520446917602], [34.41642055057554, -0.5318140070946967], [34.41717823856994, -0.533075589723228], [34.41824329497285, -0.5337626027152955], [34.41925295792696, -0.5363115066404411], [34.420691407707054, -0.5375844467749328], [34.420678238808165, -0.5393255887815197], [34.42430943480453, -0.539502041799461], [34.4255794486337, -0.5378140038301463], [34.427809434152294, -0.5375020406855497], [34.42882944792555, -0.5365640026753047], [34.42955943384188, -0.5365020401208573], [34.43182175828912, -0.5350755859901482], [34.433919886245874, -0.5319277420351528], [34.43784162308207, -0.5287956524805539], [34.440000000225716, -0.5288139986747954], [34.44355943150907, -0.528002035502852], [34.447091620781094, -0.5255456496088252], [34.44882944318199, -0.5248139955205053], [34.44992055734047, -0.5245639951379399], [34.45225000025861, -0.5248139942621829], [34.45330942999712, -0.5245020322537568], [34.45382944216617, -0.5238139937112938], [34.456250000226575, -0.5238139928124184], [34.45880942916478, -0.5230020304097842], [34.46107174966055, -0.5218255785455972], [34.46199537370548, -0.5208139907272549], [34.46630942791727, -0.5190020278939731], [34.472079438010795, -0.5153139870550891], [34.475309426431856, -0.5142520248517198], [34.479321743978446, -0.5105755738024563], [34.48034161193032, -0.5090456392230931], [34.48128066424564, -0.5088532053490572], [34.482690575114646, -0.5100020223475703], [34.48400000021154, -0.5100639826614326], [34.48682174180358, -0.5083255718696377], [34.49057174050129, -0.5043255708640592], [34.49128932196379, -0.5025973769751055], [34.492747013772636, -0.50081149623661], [34.4933081104216, -0.49825228159378415], [34.49424701283806, -0.49731149609010333], [34.49449701243744, -0.4939385040112555], [34.49382173862384, -0.4929244298802609], [34.49265753911358, -0.4925639795160379], [34.493993831101, -0.4922651529419046], [34.49494057758078, -0.49375201816475056], [34.49730942240416, -0.49375201733841106], [34.498997010594564, -0.49181149541612657], [34.49907943067138, -0.4900639771342288], [34.5022500001052, -0.49206397590159884], [34.50607173528809, -0.4913255668086926], [34.5074970074064, -0.48956149422589323], [34.50924700648165, -0.486311493883137], [34.5105585527863, -0.4817521864244828], [34.513247004035634, -0.47681149337940254], [34.51380855076303, -0.47433443112410756], [34.51449700333455, -0.4735614930032031], [34.51480855002388, -0.47099999985888424], [34.51449700272943, -0.46868850670359724], [34.51082173183201, -0.46492443435145203], [34.50991985777229, -0.4645722744626733], [34.50857173223546, -0.4626744337369436], [34.506829426923, -0.46218602577953005], [34.50430941975814, -0.4602479849378907], [34.50274535938032, -0.4601860242792708], [34.501059420197066, -0.45874798382519727], [34.49959160279744, -0.45845436613503826], [34.49732173465773, -0.4559244307367934], [34.495419860370454, -0.4545722701693833], [34.49507173510825, -0.45367443017690395], [34.49259160379529, -0.45270436372253503], [34.49207173572706, -0.4516744293729072], [34.49107942904178, -0.4514360198509792], [34.49030810568567, -0.4507477166405761], [34.490071736059825, -0.4491744288477273], [34.48905855707905, -0.44874780657664043], [34.48882173627952, -0.44767442852665074], [34.486821736599495, -0.4456744279510941], [34.48507942967228, -0.4451860175982154], [34.480809422352266, -0.44149797683501335], [34.47866986310078, -0.44082226517371736], [34.47657173866164, -0.43767442526988715], [34.47532943091088, -0.4374360139979178], [34.47430810902563, -0.4367477114771131], [34.473497013076255, -0.43268850079068966], [34.471808561577035, -0.43169773943333434], [34.47149701354545, -0.43043850054233945], [34.46957173973924, -0.42767442345441953], [34.46850667823232, -0.4269874105323223], [34.467071740193504, -0.4251744227981671], [34.46374536294713, -0.42318600969230813], [34.46332174095715, -0.4221744218446199], [34.462308563773874, -0.4214477363866609], [34.4618217411051, -0.41892442145281145], [34.456829432808505, -0.4171860071648044], [34.45514509626158, -0.415465061695085], [34.45524701735333, -0.4124384984444155], [34.4530585654031, -0.4096655552912398], [34.453058565566465, -0.40400000108498496], [34.45230856546639, -0.40241555533807866], [34.45224701724776, -0.4004384980163869], [34.450821742412586, -0.397924418580477], [34.448079432946884, -0.39668600395121417], [34.447808566537816, -0.39583444552812314], [34.45049701694232, -0.3910615022819441], [34.4508085640578, -0.38408444541483916], [34.452321741051456, -0.3830755809919753], [34.452789320950245, -0.38184738867349943], [34.45424701474121, -0.3805615018605618], [34.45455856269929, -0.3797499993309661], [34.454558562237736, -0.37533444466535243], [34.45491986200049, -0.3746777436065025], [34.456559423186185, -0.37400203147760075], [34.45774701291256, -0.3728115013823409], [34.45830856054105, -0.37099999982724136], [34.45812190225246, -0.3689999999795329], [34.45949701191125, -0.36781150113698835], [34.46080855895653, -0.36381399150277943], [34.46157173740891, -0.3635755786584721], [34.46274701039419, -0.36231150062721906], [34.463058557924754, -0.36099999978245456], [34.46280855778252, -0.35933444345137505], [34.46330855750436, -0.357249999556117], [34.463058557255025, -0.3543344435265541], [34.46455942139444, -0.35375202881260487], [34.46532942682474, -0.3528139898748464], [34.46657942654582, -0.3523139894416155], [34.47080942045377, -0.35175202670177996], [34.47184159992777, -0.35079564470073576], [34.47665056450523, -0.348283835317328], [34.47775000003023, -0.3488139853050815], [34.483500000180925, -0.34906398317906107], [34.48812500012196, -0.3482889503191195], [34.49105941756182, -0.3482520197619001], [34.491558546271584, -0.34706398020026835], [34.4958094167606, -0.34600201815213366], [34.497071727076545, -0.3450755694018609], [34.49805854332103, -0.34181397779983363], [34.49950000014042, -0.3416238167427647], [34.50230941569343, -0.3422520159195698], [34.50407941879944, -0.3408139755302108], [34.50607172442748, -0.3400755670054867], [34.5067977903898, -0.3385544045361724], [34.50749699322611, -0.3380614943538421], [34.50755853950599, -0.3373344353529115], [34.50832941769345, -0.3368139740204661], [34.51217058331365, -0.3365639724977864], [34.51400000008964, -0.3370639717858475], [34.51580941363013, -0.33700201121336887], [34.5183217209193, -0.3353255637238467], [34.51928929488228, -0.33234737523211305], [34.52030941280815, -0.3322520096552535], [34.52074534424813, -0.33181396926741596], [34.52175000016275, -0.3320639688568586], [34.52392058588463, -0.3315639680667968], [34.52675000011214, -0.3330639669524723], [34.529059411568994, -0.33275200657278603], [34.53075000014151, -0.33187380247904696], [34.53450000018446, -0.33206396399236987], [34.53680941038847, -0.33125200383760595], [34.53749534092181, -0.33056396285229767], [34.538750000123756, -0.33106396236344277], [34.53980940995398, -0.3310020027688952], [34.543329410538064, -0.3293139606165586], [34.54555940908283, -0.32900200071241664], [34.546058524132455, -0.32781395972881483], [34.54717059066032, -0.32781395921684975], [34.54995411471337, -0.32806395813617567], [34.5506782885371, -0.32932555506235384], [34.55125000012514, -0.32956395754403], [34.55257171139398, -0.3293255544076337], [34.552808521502556, -0.32831395694412324], [34.55492059211476, -0.32831395613494274], [34.55694059295974, -0.3297519966718835], [34.558170592682416, -0.32956395487731566], [34.561670593357675, -0.33006395352074125], [34.56469059402464, -0.3320019938724518], [34.567408422876476, -0.33279561294549437], [34.56942829332359, -0.33532554989145574], [34.570690594795856, -0.3362519917010208], [34.57342059529947, -0.3365639488899291], [34.575408424409495, -0.33729561011500014], [34.578080174313406, -0.34017771182811796], [34.57842829549525, -0.3413255474218427], [34.581928296202236, -0.34482554638546925], [34.58519059660707, -0.34650198639364727], [34.59367059878494, -0.3470639409515014], [34.59600000010659, -0.34756393993325135], [34.60492060115453, -0.3473139366054399], [34.61000000017216, -0.34906393432771193], [34.611821695987906, -0.3483255379224944], [34.61266981692646, -0.34692770186363253], [34.614571695047616, -0.345325537125305], [34.61516981594399, -0.343927701252006], [34.61657939667337, -0.34281393169314295], [34.619829395851916, -0.341813930525731], [34.62417060537472, -0.3418139287677086], [34.62600000018404, -0.3423139278754799], [34.62682939446951, -0.34181392759771956], [34.62817060614203, -0.3418139270527464], [34.62900305033789, -0.3443114763178264], [34.6334406038662, -0.35025196848004303], [34.637000000110156, -0.3510639233803513], [34.63967060796384, -0.3508139223326004], [34.641250000207705, -0.35106392164110856], [34.64517060912906, -0.3505639200776751], [34.64644060587558, -0.3517519635744077], [34.64755939432659, -0.35175196312986984], [34.648254680152874, -0.3513139188045807], [34.64975000006785, -0.35256391814658355], [34.65200000026315, -0.3525639172192231], [34.652829389701125, -0.35206391692225014], [34.654004681276675, -0.35206391641592655], [34.65544060722056, -0.35375196014402455], [34.660250000133615, -0.3558139138025295], [34.66205939217198, -0.3557519575936967], [34.66532938720181, -0.35381391171047305], [34.66942061407658, -0.353063910047737], [34.6746906100793, -0.35600195270125257], [34.68225000021246, -0.35631390462215007], [34.68357167572541, -0.35582551703739157], [34.6844969298323, -0.3548114673486141], [34.6856697963323, -0.35242768042334927], [34.688341549877165, -0.3502955693183127], [34.691670618920504, -0.3510639006763676], [34.692440613154005, -0.3517519458550665], [34.6959406136562, -0.35300194447718436], [34.69800000009414, -0.3535638979808767], [34.699750000246475, -0.3535638972386308], [34.701059385884164, -0.35325194246443875], [34.7043415459636, -0.3510455633263176], [34.70857937764955, -0.3490638935180287], [34.70933021131089, -0.3494276734319654], [34.71042833292681, -0.3515755090567247], [34.712690616381536, -0.3532519379015674], [34.714500000160996, -0.3538138909516729], [34.71725000027004, -0.3538138897735946], [34.72167062533449, -0.3528138879298583], [34.72319061806292, -0.3537519337338198], [34.7252500001076, -0.3543138863349126], [34.72705938170582, -0.3542519321770727], [34.728170626683685, -0.3535638850981274], [34.73250000006476, -0.354313883205557], [34.73500000028285, -0.3543138821234276], [34.7375716593453, -0.35282550073749264], [34.7387565816501, -0.35126250027551154], [34.74053069923247, -0.34985305171057324], [34.74092834222107, -0.35057549976687025], [34.74250000015307, -0.35131387887269994], [34.744329369876624, -0.35056387816852486], [34.75167063204326, -0.3508138748865798], [34.75294062304635, -0.3520019218162481], [34.75650000019781, -0.3533138727544025], [34.7598216524638, -0.35182549386968603], [34.762496898543255, -0.3485614545059275], [34.764246897554, -0.3445614541381374], [34.766058434503655, -0.3373343813893507], [34.76674689595893, -0.3365614536436565], [34.76780843334289, -0.331249999199919], [34.76805843281086, -0.32600000035077076], [34.767746894634755, -0.32493854634090014], [34.76482164913264, -0.3214245076037419], [34.76209152925001, -0.3202044583290308], [34.76032165034314, -0.3181745062002184], [34.75928920758718, -0.31765268237563926], [34.755808436958425, -0.3124156158079436], [34.75555843675882, -0.310915615619697], [34.75555843663875, -0.3093343843817888], [34.75605843655045, -0.30725210860403157], [34.75649689794487, -0.3068114553527481], [34.75755843534701, -0.3005843839398799], [34.759329363651766, -0.2990638716009871], [34.76082164915909, -0.2985754936175086], [34.76232936286394, -0.2968138702852772], [34.76399529098223, -0.29606386967530146], [34.770254710658236, -0.2960638667955374], [34.77269157137144, -0.29808438029754636], [34.772678354737955, -0.3018254899546034], [34.77430937222802, -0.3020019131835755], [34.77632935992232, -0.3005638640957212], [34.77692835611947, -0.3015754886688657], [34.77805937157634, -0.3017519116529426], [34.77899688835939, -0.3008114517080803], [34.77978919816619, -0.2985973126268448], [34.78057164301906, -0.29807548742780793], [34.78278919669858, -0.2945973119144714], [34.78382164179861, -0.2940754864094793], [34.785419760827466, -0.2921776517467016], [34.78762500017573, -0.29049508951638886], [34.789178360385826, -0.2930754848190247], [34.7898302407955, -0.29342765031592954], [34.79094157996889, -0.29508437639913465], [34.79250311772135, -0.2990614495943412], [34.79917836260226, -0.3105754816166827], [34.80292836353389, -0.3148254803965463], [34.80408024350896, -0.3154276451451088], [34.80696081129611, -0.31834730506136705], [34.80992836537188, -0.32207547817593424], [34.811330245150806, -0.32317764259116505], [34.812928366132425, -0.32557547721620267], [34.81433024580282, -0.326677641520658], [34.81517836670694, -0.32807547649280927], [34.81692836714138, -0.3298254759062275], [34.81790848508923, -0.3302955195374886], [34.818178367507976, -0.3310754755435676], [34.81925000017219, -0.33156384478047524], [34.82305936478834, -0.3312518929135345], [34.82532935036187, -0.3298138420223715], [34.831559363205194, -0.32750188933401164], [34.83432162745493, -0.32557547026552497], [34.83607162682401, -0.3240754696836951], [34.83716974682066, -0.32192763431225], [34.84159150817173, -0.3185455101340573], [34.843071624202814, -0.317825467434096], [34.84384150743637, -0.3165455092456535], [34.84707162271745, -0.3143254661351014], [34.84903917164523, -0.3113472938814815], [34.85082162130246, -0.3105754649118132], [34.85366974023043, -0.30692762939476276], [34.855309358461135, -0.3067518792540428], [34.856919738990705, -0.30467762839710205], [34.85855935777123, -0.30425187788453684], [34.86009150217151, -0.3027955027827956], [34.8636250001877, -0.302207719231121], [34.864178383893766, -0.30332546062820226], [34.86525000010287, -0.3040638236646715], [34.86750000027129, -0.3040638226162683], [34.869579338527984, -0.3035638216650381], [34.87075000020619, -0.30381382110004057], [34.87149684986008, -0.303311435567686], [34.871808384150526, -0.3020000000276986], [34.87149684969339, -0.3004385644509324], [34.87055935550226, -0.29974812725441574], [34.86782933880276, -0.3004361775378383], [34.86605935627982, -0.29949812530953795], [34.86282933989252, -0.2986861752068622], [34.86180935699612, -0.2979981234833244], [34.858579340818096, -0.2971861732304286], [34.85780935765314, -0.29649812176266427], [34.85600000016776, -0.29593617202814837], [34.85505839106959, -0.2960870823309492], [34.85555839066855, -0.2898343614991643], [34.85580839058736, -0.2891446758175229], [34.857000000203946, -0.28956382751826726], [34.85774685476117, -0.2890614380669929], [34.857746854685324, -0.2879385618769518], [34.857164066976935, -0.2873138274515388], [34.857996854528835, -0.28681143797386166], [34.85802078241381, -0.28555966540466354], [34.860829339560944, -0.28331382575098163], [34.862341500369, -0.28279550209178506], [34.863559356323535, -0.28300187575751284], [34.86425473325068, -0.2823138241903969], [34.86519064439851, -0.28325187508335076], [34.86575000019574, -0.2833138234604882], [34.867309355679424, -0.28300187413590344], [34.8677468501072, -0.28256143621070345], [34.86774684999796, -0.2809385637262617], [34.865511263012, -0.27998849443921475], [34.865496850803616, -0.2789385632519471], [34.86432161525165, -0.27717453949869814], [34.86234150003004, -0.2764544978447976], [34.86130935646851, -0.2754981232361072], [34.85957933947467, -0.27518617367065196], [34.858559356939146, -0.2742481220622499], [34.855829340268926, -0.27343617192299124], [34.85382934067896, -0.27218617099518944], [34.853746855296706, -0.2704385612002173], [34.851571618883824, -0.2669245352700146], [34.84957161942607, -0.26517453458903023], [34.848169738829235, -0.26457236763889463], [34.84707162012504, -0.26217453379685646], [34.84541973947498, -0.2610723666529323], [34.84507162070192, -0.2601745331636315], [34.842809359298855, -0.25799811532049544], [34.84025000012086, -0.25718616471040107], [34.83650000019999, -0.2571861629892619], [34.83542837675022, -0.25767452994517015], [34.83477998223338, -0.2586061821137559], [34.83405839834756, -0.2576656329129564], [34.83480839780719, -0.25274999969038003], [34.834496862249416, -0.2504385577997293], [34.833559360703724, -0.24924811138905384], [34.83075654043084, -0.24848753279705846], [34.82880936145432, -0.24649810937541522], [34.82712500017931, -0.24675494523585817], [34.82655936185109, -0.24599810843396192], [34.824428373760284, -0.2461745263428615], [34.82444159812364, -0.2481861574719155], [34.823178373273144, -0.2486745259223417], [34.822003132974096, -0.2516885552256578], [34.82194159666323, -0.2537500003700797], [34.82262827960505, -0.25524999998867337], [34.822441596737086, -0.255837057189211], [34.821559362908026, -0.2547481063341787], [34.820245275708565, -0.2544361555758329], [34.81921805706281, -0.25210485475049704], [34.819246868640285, -0.2511885550573559], [34.817558405179646, -0.24866562889587795], [34.81749686924078, -0.2471885549877919], [34.81605840567452, -0.24366562856849133], [34.8152468697421, -0.24018855447589568], [34.81355840638787, -0.23666562788607357], [34.81199687059701, -0.2311885538722868], [34.810808407181824, -0.22891562716440347], [34.81049687097277, -0.22643855360944284], [34.80905797775028, -0.224997823392312], [34.80780840809928, -0.2227479090217021], [34.80699687205284, -0.21843855308113302], [34.805808408543314, -0.2149156257674746], [34.805746872357666, -0.21343855294131073], [34.80280840957591, -0.2081656250139958], [34.80274687327237, -0.20693855238313424], [34.80174687352108, -0.20443855209404993], [34.797071633553685, -0.19792451768447225], [34.79507163409565, -0.19592451702940109], [34.79380841299916, -0.19541562282942257], [34.793746876395794, -0.19443855079379513], [34.79305936650998, -0.1937480943935812], [34.79169063364205, -0.19374809381705194], [34.79075000015796, -0.1942362051452392], [34.787829352692285, -0.19393614090448244], [34.78475655467846, -0.19173751502953543], [34.78432163731405, -0.1906745136512854], [34.781808418080466, -0.1886656200735314], [34.7812468811421, -0.18693854853968145], [34.77628919237437, -0.17940268465305623], [34.77630841994564, -0.17550000058784376], [34.77532163955701, -0.17367451078471718], [34.77191975768869, -0.17282234132382052], [34.76857164149389, -0.1686745086587888], [34.76609152062464, -0.16720445839664588], [34.765821642331034, -0.16617450785758758], [34.76452164871831, -0.165436130545846], [34.76449688704311, -0.16468854565779895], [34.76374528424162, -0.1641861301984963], [34.7633216430014, -0.16317450705975162], [34.76150656197085, -0.16223750625614156], [34.758071644468544, -0.15867450539750122], [34.75557935882528, -0.15818612661220968], [34.753000000127194, -0.1566861254754135], [34.75019062729141, -0.1567480768281287], [34.748329360424364, -0.15768612344413202], [34.74732164767757, -0.15592450205067765], [34.745394895573064, -0.15528486222378957], [34.74605843230649, -0.1544999999304086], [34.745821648125485, -0.15192450168217186], [34.744329361147955, -0.1516861216987291], [34.74305937420829, -0.1499980739774699], [34.74130843414861, -0.14994782190788342], [34.74049689606642, -0.14643854171128765], [34.739071649916006, -0.14492449951055583], [34.73750000015626, -0.14443611871272982], [34.73564213194748, -0.14478069128363438], [34.73430937555643, -0.14399807045937585], [34.733039207540415, -0.14390267312007066], [34.73305843741647, -0.14258439128910205], [34.73509152770437, -0.14029555373236932], [34.73587500016988, -0.13995778434780556], [34.73700000014404, -0.14031388150747987], [34.73932164983179, -0.14007550028860138], [34.73955843452364, -0.13800211568669643], [34.74107164918496, -0.13732549979962266], [34.74224689503049, -0.13531145793574856], [34.742246894980326, -0.13368854203897815], [34.74060338772157, -0.13252767987898031], [34.74178000526741, -0.12939388004294014], [34.74275000018265, -0.12956387901656854], [34.743496894329574, -0.1290614577660775], [34.74349689428857, -0.1276885422089107], [34.7423079978582, -0.12600220191583725], [34.744059373734714, -0.12600192563040924], [34.74505843171461, -0.12449999950087132], [34.74530843149385, -0.12075000031236652], [34.74430843124967, -0.11691561068878067], [34.74430843116264, -0.11383438931899366], [34.745558431088725, -0.11024999971851263], [34.745454719376895, -0.10862499999594714], [34.7460584307924, -0.1072499999351352], [34.74574805852984, -0.10637499998848708], [34.746308430455294, -0.10233438864204562], [34.7479968917785, -0.10006145702415367], [34.748308429535115, -0.09858438818471904], [34.749006564521004, -0.09751249861380543], [34.75424688913396, -0.09306145594295638], [34.75455842672601, -0.0917499997189537], [34.75432164411829, -0.08892450419950683], [34.751559372086724, -0.08699807736585612], [34.74750000015652, -0.0856861230310318], [34.7454406272889, -0.08574807488495413], [34.7419406267004, -0.087248073476416], [34.737428351113245, -0.09042449891559175], [34.73375310310009, -0.0954385403247435], [34.73346079436359, -0.09665267288077178], [34.7281783480899, -0.1009244961267124], [34.72515847102342, -0.10420444230298934], [34.721420635217974, -0.10568611176245615], [34.72032936537444, -0.10568611129359616], [34.71955800540133, -0.1052477897925895], [34.71857165524844, -0.10392449324130303], [34.71778921204661, -0.10365266893479715], [34.71482165632625, -0.0999244921236019], [34.71291977304335, -0.09907232220000732], [34.70705937946836, -0.0939980596275308], [34.70632936819979, -0.09393610528695027], [34.70280938011604, -0.09199805794608933], [34.69925000016748, -0.09118610227246586], [34.69807936993985, -0.09143610178365469], [34.695500000124746, -0.09093610068314929], [34.6915000002148, -0.09093609899186623], [34.688928336500986, -0.09167448426404763], [34.686420627841656, -0.09518609685972071], [34.68394061719314, -0.09499805056520182], [34.683170627141536, -0.09543609549488546], [34.681690616833244, -0.09549804969028848], [34.68092062665252, -0.09618609454393377], [34.678428333314095, -0.09692448114430997], [34.67700308086103, -0.09868853104762053], [34.67683021653034, -0.09982231141167247], [34.67517833226818, -0.10092448020488543], [34.6745802158085, -0.10207231076810523], [34.67350307937608, -0.10293853059532865], [34.672691538513035, -0.10474999993760874], [34.67319153852002, -0.10583440441184729], [34.673080215243104, -0.1065723103704927], [34.67017833069676, -0.10717447872189695], [34.669753077811144, -0.10768853003363535], [34.669580214145206, -0.10907230936399288], [34.665754696406054, -0.11168608821192486], [34.65962500016166, -0.11329217776857568], [34.65725000017315, -0.11293608468450061], [34.65592062102551, -0.11343608416206526], [34.65382937975451, -0.113436083298014], [34.6527500001482, -0.11268608282492659], [34.64919061151455, -0.11324803721491147], [34.64667832370757, -0.11467447185216452], [34.642580205989894, -0.11932230158368314], [34.63942832148524, -0.12117446975130092], [34.63650306479513, -0.1241885247493144], [34.63569152266214, -0.12741558769176037], [34.634493394914905, -0.1289874611602493], [34.63242831928066, -0.13017446773283026], [34.63117831891085, -0.13142446735678115], [34.63049339344045, -0.13298745981709054], [34.62824339258619, -0.13598745907038123], [34.62492831695206, -0.138174465579465], [34.622003058919724, -0.14143852235590393], [34.62169151642562, -0.14550000013629694], [34.62269151672061, -0.1468344148299754], [34.62292831618854, -0.14782553502067222], [34.624750000153796, -0.14856392860952242], [34.626941518426285, -0.1480639277427827], [34.62644151811978, -0.1499155859579426], [34.62524389414717, -0.1512349119071176], [34.62216980128301, -0.1505722961086276], [34.622246941636355, -0.14818852263884622], [34.619559393789544, -0.14549802605747567], [34.61575000022507, -0.14543606774804743], [34.60819060473354, -0.14874802183326213], [34.604658440443096, -0.1512043983296338], [34.603329391059546, -0.1514360627734181], [34.60305849150019, -0.15033441888825302], [34.60574694774467, -0.14756147980986548], [34.60624694746713, -0.14518852020470396], [34.604571689272866, -0.14242445981175744], [34.60130939654185, -0.14074801928690062], [34.599750000151694, -0.14043606132196534], [34.596250000190444, -0.14018605992537897], [34.592190602412586, -0.14124801591905556], [34.590080190265375, -0.14332228690881074], [34.588125000139264, -0.14446108823679257], [34.58282939502473, -0.14468605461735187], [34.58130939959453, -0.14249801195118383], [34.579440600487004, -0.14249801125117992], [34.57519059980312, -0.1444980097145687], [34.57317060331074, -0.14668605082006042], [34.57082939747713, -0.14693604988823375], [34.57032169891596, -0.14617445023279957], [34.56755850504195, -0.14466557372602556], [34.567808505099435, -0.14250000008286906], [34.56730940165657, -0.14174800685899558], [34.56482939854722, -0.1416860475545875], [34.56250000013482, -0.14093604661715667], [34.56039215125791, -0.14103059325966663], [34.55955940279864, -0.13974800407084215], [34.55794059729934, -0.13999800347717706], [34.55542829749252, -0.14242444603778864], [34.55344148950233, -0.14674999959981763], [34.553753033755, -0.14956148782734266], [34.55844149105148, -0.15458442779809142], [34.557503034886885, -0.15593851266884917], [34.557158429241674, -0.15795438182202248], [34.555920599569305, -0.15843604409204998], [34.554000000137364, -0.15848610635863786], [34.5490000001602, -0.15768604138528908], [34.54694059542701, -0.15824799954800778], [34.54492829417763, -0.1594244431873545], [34.54292059694153, -0.16143603904405707], [34.54042829286116, -0.16242444197837014], [34.539253028115695, -0.16368851000580453], [34.53869148309924, -0.16566556833592994], [34.537420595699665, -0.16718603693367357], [34.53444059347907, -0.1674979951028498], [34.53192829039688, -0.16842443967791934], [34.53075302496094, -0.170188508563511], [34.53044147968768, -0.1727500000301523], [34.53083568520765, -0.17343603441995434], [34.529928289724836, -0.17367443911944663], [34.52900302410772, -0.17493850844051123], [34.52844147874689, -0.17699999931854132], [34.5284414782252, -0.1799155667018458], [34.52783017160042, -0.18132227037550006], [34.526420593099, -0.18218603273915795], [34.5239205925726, -0.18293603181642354], [34.52082940833671, -0.18318603062943442], [34.51794059082017, -0.18249798931435948], [34.515253018879534, -0.18518850647697188], [34.51469147311125, -0.1869999996993492], [34.51508567363051, -0.18968602844279284], [34.51267828457282, -0.19092443450003183], [34.512158417923864, -0.191954366840052], [34.50990057658498, -0.19321617968580554], [34.508250000121414, -0.19268602586203032], [34.50632941143938, -0.19293602515100847], [34.501821718545926, -0.18792443165481595], [34.500559412065165, -0.1872479832715587], [34.496579413101934, -0.18693602150260086], [34.49616983733688, -0.1865722620150757], [34.49453383677847, -0.182624999976474], [34.49405853445687, -0.1793344402029338], [34.49480853416503, -0.17699999984330494], [34.494808534100315, -0.17550000002870905], [34.49405941280319, -0.1739979810324161], [34.49300614638612, -0.17398485233310898], [34.49125000014416, -0.17293601947889325], [34.49042827930072, -0.17317442856156115], [34.49019146453913, -0.1738548441663372], [34.489308535914844, -0.17316555877352263], [34.48907172146233, -0.17167442835969898], [34.486940586603644, -0.1714979785518546], [34.48619146311986, -0.17299999993655024], [34.48669146308348, -0.17458444153014618], [34.48619146295931, -0.17675000007446473], [34.48684246585519, -0.17793601784804913], [34.48444058614063, -0.1784979776985615], [34.48390841220361, -0.17945435742066468], [34.48257941550834, -0.17968601628846065], [34.48100000009858, -0.17918601568088097], [34.47932941610704, -0.17918601509022875], [34.47907172422696, -0.17842442570147823], [34.47850000014276, -0.17818601475637472], [34.47767827580482, -0.17842442524051677], [34.477420583841756, -0.17918601438165596], [34.47550000013782, -0.17937617686921922], [34.474500000136764, -0.17893601328240927], [34.47132941758934, -0.1789360121351123], [34.47016984369678, -0.17832225506054097], [34.46803930164022, -0.17565261097994012], [34.46774699732518, -0.1731885000853566], [34.46705809095497, -0.17249770634790998], [34.466746997479156, -0.171188499691369], [34.46553930218337, -0.16965261038021914], [34.46407172773794, -0.16642442179754988], [34.46080941728253, -0.16374796968575592], [34.45932941935967, -0.16393600772713127], [34.45725000015623, -0.163186006955916], [34.456678270844215, -0.16342441979194436], [34.45583015351645, -0.1648222511341953], [34.453428269904045, -0.16667441897651386], [34.451330152168964, -0.16932225005246834], [34.4495046517587, -0.1704360041756945], [34.44825000012416, -0.16993600369682768], [34.44694058103963, -0.1699979650215762], [34.446252996008376, -0.17093849677788217], [34.44621069182579, -0.1719026062616274], [34.44417057787079, -0.17318600224073646], [34.44169058026707, -0.173497963273418], [34.440920577247695, -0.17418600106718568], [34.43819057975786, -0.17474796211605845], [34.43767057662258, -0.17518599990017583], [34.43387500014273, -0.17579207427838572], [34.43105942150593, -0.174497959759776], [34.4293294251722, -0.17443599692572684], [34.426500000105456, -0.17343599589398498], [34.42475000018044, -0.17343599527105955], [34.423190577731624, -0.17399795716519764], [34.42215839922641, -0.17520433761630178], [34.42017057342132, -0.17618599365358742], [34.41667826038668, -0.1771744096233239], [34.4164414376906, -0.1784155454268791], [34.415678260039975, -0.1789244094188823], [34.4144606814709, -0.1811525996760705], [34.41100298390625, -0.18543849190967163], [34.41044143518077, -0.18816554442426123], [34.40919143465219, -0.1912499999371036], [34.40950298312043, -0.19331150834545374], [34.41028172290172, -0.19464519031707267], [34.409830140492915, -0.19532224003176518], [34.40887500013894, -0.19575465014607316], [34.40787191410305, -0.1929999999947261], [34.408308565857205, -0.18950000019916066], [34.407747017599334, -0.18743849168357585], [34.4048217431308, -0.18392440676492502], [34.401750000134854, -0.1831859871636384], [34.400928256235034, -0.1834244057736272], [34.399670569482296, -0.1846859864446687], [34.39617056881004, -0.18593598524080726], [34.39175000018545, -0.18543598367822628], [34.38735783113945, -0.18728050559320247], [34.38500000012729, -0.18693598133966888], [34.380940571879876, -0.18724794351152615], [34.376080132412554, -0.1920722316704091], [34.37415838873925, -0.19295432295627737], [34.3720000001019, -0.19218597687005723], [34.369920563989815, -0.19243597617859315], [34.36807943660052, -0.19218597554042485], [34.36705943029778, -0.19124793912398688], [34.36525000014869, -0.19068597456202996], [34.358920562048375, -0.19368597241952532], [34.356940568634094, -0.19424793593864123], [34.35600000012736, -0.19537612674776253], [34.35532175543436, -0.19392439471124417], [34.35430943197055, -0.19324793512016528], [34.35250000011771, -0.1929359702382078], [34.349190567655114, -0.19299793352097014], [34.34692824290024, -0.1941743926478755], [34.34646066024048, -0.1954025860201543], [34.345428242459484, -0.19617439231164963], [34.34394141199534, -0.19866553281869662], [34.34200296163448, -0.20043848246794393], [34.34194141104825, -0.20475000064550308], [34.34244141106448, -0.20616553266553161], [34.34044141016634, -0.21224999960448174], [34.340441410048825, -0.21450000035270952], [34.3412529603901, -0.21831151717868594], [34.343190566334336, -0.22000206829891888], [34.34933012432337, -0.22317777414212517], [34.35017824254152, -0.2245756065099145], [34.351441413104965, -0.22558446555882167], [34.35175296321498, -0.22681151585299944], [34.353428243138104, -0.22907560573305055], [34.35458012516272, -0.22992777274038959], [34.35492824343958, -0.23082560538781638], [34.35646066123385, -0.23209741148106236], [34.35717824385719, -0.2333256048296436], [34.359190568071426, -0.23525206329986814], [34.36315838462529, -0.2370456799897529], [34.364190568654635, -0.23875206173151747], [34.36965838579184, -0.23979567800623966], [34.371000000071, -0.24056402342260827], [34.373559430511655, -0.24050205874217437], [34.37805942986423, -0.23875205732469512], [34.38032175107106, -0.23632559914660972], [34.38055857780555, -0.23550222708004895], [34.382006688654656, -0.2337626174458759], [34.383080131745956, -0.23417776575816948], [34.38350297268314, -0.23631151173087156], [34.38475297289319, -0.23931151150283472], [34.38696066984537, -0.24134740518237835], [34.38725297313736, -0.24906151113845068], [34.38800297327239, -0.25131151109566047], [34.389720295434294, -0.25335387926791986], [34.39150297373354, -0.2625615106246433], [34.392460670124485, -0.2633474037077433], [34.39375297418304, -0.2670615103246737], [34.39467825137837, -0.2685755956881666], [34.39737807857592, -0.2694999999861244], [34.396252974726835, -0.27168848990085614], [34.39619142546619, -0.27325000018913015], [34.397191425607275, -0.2750844568122155], [34.39775297481607, -0.277561509785214], [34.39894057220573, -0.27950205060106775], [34.401500000131925, -0.28006401281638066], [34.403170566249116, -0.2798140122670424], [34.403378080483996, -0.2802499999833696], [34.402002975901816, -0.2821884907014308], [34.401691426402394, -0.28491554416213294], [34.400691426014056, -0.28799999953661654], [34.40069142564112, -0.28991554410747356], [34.39925297433547, -0.29268849034026057], [34.398941424921574, -0.2942477785642862], [34.397330130774904, -0.29682223936303176], [34.395440571335406, -0.29699794825812714], [34.39342824966112, -0.29792440397704184], [34.39225297165458, -0.3001884892611442], [34.39219142186507, -0.30391554270143034], [34.38817824788056, -0.30717440271222796], [34.38665838527387, -0.3099543279350864], [34.385829438744324, -0.310185981800334], [34.38430943079645, -0.3089979447239132], [34.382745368022746, -0.30868598071570946], [34.3800594312614, -0.30624794335976885], [34.37675000016638, -0.3056859786368758], [34.37442824459301, -0.30717439931414225], [34.37419141535818, -0.3090000001821411], [34.37468750826864, -0.30974999999557873], [34.372691414485026, -0.3137499998833758], [34.37350168101567, -0.3183749999936887], [34.372830122957815, -0.3195722340536884], [34.371920558560475, -0.3201859770136718], [34.36892055797471, -0.32093597602412083], [34.366940566912554, -0.32099793920626973], [34.36492824146316, -0.3221743970624162], [34.36444186979071, -0.32349767745216707], [34.363330120206456, -0.3250722319315194], [34.362428240650395, -0.325674396482751], [34.36119140943259, -0.32816553764682527], [34.36025295942831, -0.3289384852781332], [34.358502958638496, -0.33268848496526165], [34.35796065435158, -0.3349025906201536], [34.356420554923986, -0.3366859717536842], [34.35265837657872, -0.33845431804110865], [34.348690563977364, -0.33874793352987964], [34.34450295359938, -0.3414384832478045], [34.34394140242459, -0.34324999979880405], [34.344502953229245, -0.34631151671192945], [34.34692823560011, -0.3485756071346176], [34.34815837497631, -0.3490456831628255], [34.34833011444185, -0.3495722291445494], [34.34725462293431, -0.3501859687276754], [34.34494056311177, -0.3504979323855548], [34.34369056292003, -0.3512479320022016], [34.34267823442797, -0.3519243917920577], [34.341080112310664, -0.35407222757732704], [34.33969056231811, -0.35449793076296665], [34.33862500013107, -0.3555045951772109], [34.337500000079366, -0.354685965415663], [34.33562500013159, -0.35500459346295626], [34.335000000068156, -0.35468596458157037], [34.33319056149984, -0.3547479287532267], [34.329428231015186, -0.3569243886726729], [34.32765837021895, -0.3589543109432566], [34.326178230096446, -0.35942438792042913], [34.324752945960995, -0.3619384806586209], [34.32419139395784, -0.36549999979902753], [34.32425294539374, -0.3668115193054373], [34.32564638870112, -0.3690276390984187], [34.324752945263754, -0.36993848074874935], [34.32408010664869, -0.37157222419523855], [34.32217054677149, -0.3736859603817113], [34.31980944104817, -0.3724979246844044], [34.31782945416521, -0.37243595898184645], [34.31675000007462, -0.3719359585704928], [34.313440558415564, -0.37224792275520574], [34.312178226011184, -0.372924384665385], [34.31125294082962, -0.37443847899555655], [34.31119138877813, -0.3757500001250055], [34.31150294065041, -0.37781152098574594], [34.312545073263784, -0.3791249999677598], [34.3112529402081, -0.3814384790562162], [34.31125293998315, -0.3848115210396373], [34.312440557711504, -0.3865020774832313], [34.3165801033782, -0.38717777698584005], [34.31669138918442, -0.3894155312896656], [34.3139282252138, -0.3911743850876269], [34.313441387935576, -0.3924999995939456], [34.313420543912336, -0.39418595755094676], [34.31144055737105, -0.39399792219284624], [34.31017822408108, -0.39492438423829535], [34.30867822370351, -0.39692438378934114], [34.308210633675486, -0.40140258239161575], [34.30712500012793, -0.40200457184041416], [34.3059953886364, -0.40168595512831806], [34.30491990101871, -0.4008222208446546], [34.304308615843276, -0.4001655292571486], [34.30399706369508, -0.39743847830007917], [34.30180944406628, -0.3954979192615793], [34.294750000239624, -0.3951859514414517], [34.293178220120126, -0.39592438034305344], [34.2925029333056, -0.3969384765955366], [34.29244138051774, -0.39900000024062104], [34.2930800964762, -0.4013222181512947], [34.29017053956349, -0.40168595000024776], [34.2889953914096, -0.40143594962061246], [34.288747068448586, -0.3996884764669597], [34.28682178164397, -0.39692437889545845], [34.28441448641305, -0.39668594824686904], [34.28674706855755, -0.3945615237649068], [34.2873086206812, -0.391750000120237], [34.286321781216856, -0.38792437884218123], [34.28507178135605, -0.38642437851425954], [34.28332946073201, -0.385935947771322], [34.28291448654575, -0.38531405238942973], [34.28632178091528, -0.38357562113691374], [34.28734946696631, -0.38178390694275144], [34.291500000105906, -0.3838140496308857], [34.29482177895686, -0.3828256191868566], [34.295997064597294, -0.38006152252343817], [34.29602974771553, -0.377853891555161], [34.29699538784129, -0.37681404788969447], [34.301309443671784, -0.37650208081516456], [34.30432177627028, -0.37507561703181963], [34.3053086130953, -0.3724999998413245], [34.304747060959464, -0.36843847837567245], [34.30355944293632, -0.36699791978254676], [34.30157945647102, -0.3666859536323743], [34.29959163592217, -0.3654543029158539], [34.29757177692716, -0.36142438135204163], [34.29605861480341, -0.36041552707243296], [34.296058614708166, -0.35933447291270826], [34.29674706254546, -0.35856152252810813], [34.297308614270555, -0.3567499998034307], [34.29674706199468, -0.3521884773133391], [34.29603936532394, -0.35165257887906376], [34.29432177688193, -0.34867438059361644], [34.29155944368383, -0.3462479161429571], [34.28982945712031, -0.34618594980940715], [34.28857177792572, -0.344674379260064], [34.28730944412195, -0.34399791487170345], [34.28500000021381, -0.34393594820942475], [34.28292822103808, -0.34567437794161465], [34.28067054145016, -0.3496859468532908], [34.279559445278856, -0.34899791260640683], [34.2784005338356, -0.3492160903572709], [34.277500000063505, -0.3486859458181643], [34.274579459768894, -0.34893594493226177], [34.273603633232774, -0.34802763426741706], [34.27355862011096, -0.34033447706327224], [34.27380862029508, -0.3395844768175622], [34.274571780786495, -0.33932562384773124], [34.2749970674294, -0.33856152508274145], [34.275058619466826, -0.33658447678964554], [34.27555861940721, -0.33549999949210185], [34.27555861916192, -0.33250000044086614], [34.27482178022818, -0.3306743761648461], [34.273558619565755, -0.32991552292148424], [34.27332178047389, -0.3291743758221563], [34.27100000006664, -0.3281859437164307], [34.266000000167494, -0.3281859421328153], [34.26367053995226, -0.32893594141801935], [34.26225000005557, -0.32843594094962864], [34.259329460980716, -0.32868594003534135], [34.25730862434434, -0.3276655201623532], [34.25757946112088, -0.32681406053568446], [34.26000000011851, -0.3258739135507835], [34.26250000011656, -0.32681405897546106], [34.26405944647166, -0.32650209195153235], [34.26649706880511, -0.32406152615387174], [34.26655862101686, -0.3225022564437357], [34.2675586208035, -0.3214999999284807], [34.267308620545194, -0.31958447835111575], [34.26780862048991, -0.31849999981094673], [34.26757178108674, -0.3169243745368976], [34.26650000008794, -0.3161859422721014], [34.263500000204886, -0.3164359413249483], [34.262420540410666, -0.3169359410395711], [34.26107946006135, -0.3169359406170856], [34.25955862283237, -0.3163344795821548], [34.260289372254924, -0.3150974285883631], [34.2625717820057, -0.3135756265596177], [34.26350672606786, -0.31151264932096207], [34.2645794590938, -0.3108140583695393], [34.266309445709744, -0.3105020913240265], [34.267079458632445, -0.3095640575674519], [34.26832178054306, -0.3090756252242948], [34.26855861926813, -0.30733447832061345], [34.26955861898398, -0.3059999998906386], [34.269071780044314, -0.30417437483609966], [34.267808155181086, -0.30374765073620535], [34.26705944537461, -0.3022479088724001], [34.265000000145456, -0.301435941775902], [34.26167054104567, -0.3034359407602753], [34.25892054057549, -0.3039359399024868], [34.25750000009797, -0.3036859394173868], [34.256107816568004, -0.30403044273601476], [34.25350000016326, -0.30393593816384595], [34.25184946789667, -0.3044660817358127], [34.250539373993526, -0.3029025693487215], [34.250247071846665, -0.30118847176465885], [34.24946835449132, -0.30014520379775356], [34.25057946068014, -0.29881406278224154], [34.25180944716617, -0.2987520955263477], [34.25224707107363, -0.29831152795833393], [34.25255862359863, -0.2965000000090668], [34.25220494354215, -0.29437499998664457], [34.252808623232625, -0.2924999997377677], [34.25280862312549, -0.2910000002036903], [34.252497070400786, -0.28918847202849507], [34.25155944681474, -0.28824790434149766], [34.249750000152005, -0.28793593696888736], [34.24875000011747, -0.2883760833984829], [34.24787198048235, -0.28774999998403206], [34.24884164012967, -0.28679571237009704], [34.25207945973946, -0.2850640623256208], [34.253000000134406, -0.2853140620204427], [34.25657945897388, -0.2840640609176086], [34.26032178097561, -0.28382562708206344], [34.26105861994055, -0.28224999965913194], [34.26055861960782, -0.27825225841325096], [34.26105861961512, -0.2774999995814662], [34.26130861924894, -0.27433447998164473], [34.26284163677682, -0.27304570864869676], [34.265821779139415, -0.271575625897666], [34.266558617380916, -0.27031405778225537], [34.2673217787498, -0.2700756255498784], [34.267795960258475, -0.269064057425464], [34.26957177823053, -0.26882562500765605], [34.27005861603389, -0.26683447865973686], [34.27149706344401, -0.265811525638699], [34.27124706330614, -0.26268847422590524], [34.269321777724194, -0.25767437484618505], [34.26750000005585, -0.2561859425049452], [34.26150000018197, -0.2564359406108821], [34.2602888720114, -0.2573499403460172], [34.26030861841433, -0.25550000024771385], [34.25949706612065, -0.2529384727464024], [34.25880944505352, -0.25224790640296174], [34.25574538563076, -0.25193593879703474], [34.2552470670718, -0.24793847225892127], [34.25453936904503, -0.24715256913102565], [34.251747067692264, -0.24118847181021194], [34.25066989949472, -0.24032220360238676], [34.2498217812133, -0.23867437049424262], [34.24832178146375, -0.23717437014598075], [34.246559446127755, -0.2362479028395559], [34.24494055394838, -0.23624790236696647], [34.24190836143601, -0.2382042852214478], [34.239375000115864, -0.23896096507877462], [34.2375594472242, -0.23749790026580925], [34.236829459983554, -0.23743593290228585], [34.23457178437482, -0.23492436714136702], [34.23309164022169, -0.23420428278289063], [34.23255944768183, -0.23349789882054947], [34.228190552030995, -0.23349789759046638], [34.227004610991244, -0.2349359298955364], [34.22600000005778, -0.23418592955993672], [34.22344055149657, -0.23424789623344666], [34.22270403084096, -0.23518592858818993], [34.221190551208466, -0.235247895602098], [34.22017821279657, -0.23592436395840924], [34.21983009427977, -0.23682219679765534], [34.21850292338481, -0.23818846770281504], [34.21819136979994, -0.24050000008924902], [34.2187950474974, -0.24312499996627518], [34.21869136953608, -0.24491551297213812], [34.21796934975814, -0.24539669108516876], [34.217071788494245, -0.24392436334690465], [34.21584164375944, -0.2434542782160875], [34.215309449929265, -0.24274789397627686], [34.21205863228738, -0.24274772925979635], [34.2119970789756, -0.24143846726161988], [34.21030945043066, -0.2392478925759124], [34.20925000010648, -0.23893592447301049], [34.20780863347063, -0.2391859240405305], [34.20774707990454, -0.23743846669045424], [34.207353655871366, -0.2369723725000949], [34.20799707978708, -0.23631153321139867], [34.20805863315759, -0.2347500001635801], [34.20730863315657, -0.23391551085346754], [34.206997079771824, -0.23143846654831524], [34.20555863358725, -0.22974772760229412], [34.2052470801106, -0.22843846637310922]]]}}]}