{"type": "FeatureCollection", "name": "winam_gulf_planetscope_aoi", "crs": {"type": "name", "properties": {"name": "urn:ogc:def:crs:OGC:1.3:CRS84"}}, "features": [{"type": "Feature", "properties": {"name": "winam_gulf_planetscope_aoi", "description": "Simplified AOI wrapping the Winam Gulf + adjacent Lake Victoria, for PlanetScope ordering.", "source": "JRC/GSW1_4 occurrence>=30% water mask, largest body", "buffer_m": 300.0, "clipped_to_bbox": [34.0, -0.55, 34.9, 0.0], "vertices": 1300, "area_km2": 2644.9}, "geometry": {"type": "Polygon", "coordinates": [[[34.00999041334462, -0.011961485618528842], [34.003700430875305, -0.0022745620704812037], [34.002756404687766, 0.0], [34.0, 0.0], [34.0, -0.12650720664838477], [34.00153156879254, -0.12650720255783235], [34.00250161000701, -0.12577500864002789], [34.00321843401613, -0.1262572012706156], [34.00503222986075, -0.12646377361401812], [34.00671843500302, -0.1275071985298112], [34.00962590074219, -0.12771376980622873], [34.01109391811502, -0.12941892407823008], [34.01446843738979, -0.13125719252090506], [34.01725000122605, -0.1314637633180009], [34.01886671174274, -0.13094991150882707], [34.02284392463577, -0.13566891703259917], [34.024968440574284, -0.13700718428604897], [34.02755440549383, -0.1374528599404019], [34.027554405263054, -0.1391472662002871], [34.02250000119741, -0.13853624116006702], [34.02146843944102, -0.1387428128912349], [34.01990405518553, -0.14011715173412945], [34.01675000110375, -0.1392862362820652], [34.01506082503735, -0.13959883045113156], [34.012722323835064, -0.1384308796911969], [34.011656084449626, -0.1370810761770601], [34.010281566369876, -0.13624280417209622], [34.00675000113605, -0.13553622785260847], [34.004500001089646, -0.13638973510913988], [34.00025000110035, -0.13453622242138102], [34.0, -0.13462838240612487], [34.0, -0.4412137760794496], [34.00000000066406, -0.441213776356348], [34.002500001567306, -0.44121377427307484], [34.00459615423213, -0.4404637726862127], [34.006750001706116, -0.44046377072494347], [34.00903159430444, -0.4400071953066047], [34.01037500111569, -0.4391943626530316], [34.01300000090417, -0.4402137654736769], [34.01528159231031, -0.44000719044232695], [34.019906129249236, -0.43691891754107254], [34.02249047447018, -0.4337885094569139], [34.023240473395454, -0.4322885092180168], [34.023412615046574, -0.43058271593178665], [34.025406124061675, -0.4291689142430995], [34.02650424703612, -0.4275210749467792], [34.029768605339335, -0.4248727733882954], [34.03028017950096, -0.42506960847542113], [34.03464763550181, -0.42912323121821144], [34.03764374217011, -0.4337024442426551], [34.03884388469496, -0.4364189062007343], [34.039995760587956, -0.43727106634319685], [34.041093885345255, -0.43941890484501317], [34.04409388623238, -0.4429189029304316], [34.04573931624367, -0.44401135084892623], [34.04809388765022, -0.4466689003757824], [34.04974576352703, -0.4475210598715435], [34.051593889080564, -0.44966889825073125], [34.05625713499715, -0.4516150333484099], [34.05779951658228, -0.4527253751167402], [34.05875954926585, -0.4567884981038024], [34.06008417880676, -0.4589009370897581], [34.06200954837751, -0.4662884964378316], [34.064593891457406, -0.471168890062792], [34.0666499313646, -0.4732499996001311], [34.06450954704738, -0.4759615033683395], [34.063875097230486, -0.47814195214168353], [34.060093886055945, -0.48083110660486394], [34.05922821698466, -0.48213203540680843], [34.05471841719507, -0.482242840950179], [34.05146841581356, -0.48374283835798126], [34.04837260433551, -0.4860617759444448], [34.046660528975586, -0.4867862637656314], [34.04465384939579, -0.4875362620218213], [34.04171841207265, -0.48774283049681477], [34.03962583234067, -0.48953625784463084], [34.03421840942635, -0.48974282447125883], [34.033207694469574, -0.4905362522542262], [34.027218406984716, -0.49149281888755253], [34.02654539897367, -0.4919455211962114], [34.02446840562572, -0.49199281688327695], [34.02262500114099, -0.49305564405350655], [34.01975000118716, -0.4922862406534196], [34.01646840298591, -0.49299281056937205], [34.01332978599234, -0.4946022731751728], [34.01034616183325, -0.4942862327591369], [34.008031601976306, -0.4932428039904403], [34.00525000096747, -0.4927862284388664], [34.001968398233984, -0.49299279936169094], [34.0, -0.4936726809790736], [34.0, -0.55], [34.11419563514539, -0.55], [34.11419563572844, -0.5499999985829673], [34.11399044201581, -0.5472115214782368], [34.112945634079495, -0.5438940130430016], [34.113445632310004, -0.5411467557884407], [34.11540609875076, -0.5396688568513568], [34.11683989346989, -0.5378815510564285], [34.117509565363164, -0.5435384771815985], [34.11880437278951, -0.5459826402054346], [34.11925956462816, -0.549038476615206], [34.12021685745724, -0.55], [34.14152082695082, -0.55], [34.143406083045384, -0.5484188381794314], [34.14532154756909, -0.545377850637813], [34.14800000178071, -0.5454636432319847], [34.15053156232742, -0.5450070770099813], [34.15325160957865, -0.5432748965465415], [34.15746844270339, -0.5457570708713579], [34.161031558628125, -0.5457570676725636], [34.163156068456274, -0.5441688247609623], [34.164396712689886, -0.5416796047824725], [34.16599039370813, -0.5400384590003243], [34.16744557936375, -0.5359999986804231], [34.16701701612379, -0.5331249996075315], [34.16769557705442, -0.5312499989263352], [34.16794557454873, -0.525999999654572], [34.167490385672885, -0.5234615403602927], [34.16644557426402, -0.5222714298930827], [34.16634677945905, -0.5212499995055666], [34.16694557252827, -0.5189999990606202], [34.16662147602562, -0.5168749993716365], [34.16694557073577, -0.5147499996669075], [34.16624038144793, -0.5094615401393747], [34.164799217903315, -0.5072593102946426], [34.164322076367014, -0.5051249995118468], [34.164605160569295, -0.5012075502330303], [34.16565605350967, -0.500418823398094], [34.167490375769944, -0.4972884583482377], [34.167945561635335, -0.4949999971604215], [34.167945559725965, -0.49025000174147343], [34.167271368558836, -0.4858684169576063], [34.168393470189855, -0.48351361031522], [34.17140604418118, -0.4814188195871004], [34.173656042060436, -0.4791688180054417], [34.17500416646719, -0.47652097639600016], [34.17749035832971, -0.47428845488296245], [34.178492223605645, -0.4717790050646386], [34.18265603288249, -0.468168811814473], [34.184200408168046, -0.4659752899527753], [34.18678153621426, -0.4647570450981509], [34.18837409015184, -0.46321360475260964], [34.190281534844786, -0.4630070418302723], [34.19165602497646, -0.46216880562245727], [34.19699033414513, -0.45578844767365034], [34.19949033046252, -0.4512884463934669], [34.20009536347249, -0.4477568575543277], [34.20144550958212, -0.4447285621363226], [34.20399032277177, -0.44078844479452706], [34.204445504277125, -0.43831039580746506], [34.2069903178014, -0.433538443237112], [34.20719549861409, -0.4300000007654531], [34.20669549792027, -0.4271059687640367], [34.206904787803886, -0.42529396604944786], [34.207486464782995, -0.4244209059703402], [34.20780450528553, -0.4268940315245317], [34.20730450418493, -0.43000000002091293], [34.2077596865397, -0.4322884442416124], [34.20884399719093, -0.4341687938353023], [34.210968479742704, -0.4357570230165891], [34.21262593353594, -0.4359635806459011], [34.21409399986765, -0.43791878996722033], [34.218218481889686, -0.440007016189824], [34.22228151937668, -0.44000701232943373], [34.22665390347109, -0.43771356637976194], [34.22973941990067, -0.43926119724773344], [34.23321848751173, -0.44200700206623755], [34.23825000128922, -0.4427135544386987], [34.243500001701754, -0.44271354901693455], [34.2457815104173, -0.4422569900668396], [34.247155980067845, -0.4414187659136495], [34.24853759360228, -0.4387989716389657], [34.24996849442399, -0.4395069860801206], [34.252054546173525, -0.43971354018624653], [34.252259725391525, -0.44153842688069744], [34.25384402705724, -0.4441687611296437], [34.254968495554515, -0.445006981187521], [34.25774775741269, -0.4455221650099019], [34.25775972815279, -0.4490384246566912], [34.259094029029725, -0.4514187571902634], [34.26109402987176, -0.453668755648075], [34.263750001036506, -0.45496352780081245], [34.26678150394655, -0.45475696965389417], [34.26855455832302, -0.4538024129100309], [34.26875973665609, -0.45503842002023737], [34.27109403623243, -0.457668748174346], [34.27371850121371, -0.45950696293725696], [34.2755545635216, -0.45970258945077225], [34.276759740718944, -0.465538416545013], [34.27921850224484, -0.467756957480158], [34.28172413761235, -0.4686082064530174], [34.28155456577407, -0.4705000000064489], [34.2820097433621, -0.4730384147675702], [34.28334404079671, -0.4749187389116418], [34.28571850342887, -0.4765069509366155], [34.28865391492024, -0.47671350120002814], [34.29696850762933, -0.47900693973371117], [34.300250001057016, -0.4794634886731981], [34.3036539189942, -0.4792134850993621], [34.30615125246274, -0.47979352378030155], [34.30809405770899, -0.48166872000039535], [34.31122059887724, -0.4835901641439074], [34.31271851353778, -0.4852569240240055], [34.31425000156345, -0.48546347339543466], [34.31683940113069, -0.4844634705743001], [34.318781486943216, -0.48425691780423574], [34.320490224981675, -0.48253839813675525], [34.320490224127774, -0.48021160092047876], [34.31791198061303, -0.4775808592376368], [34.316240226231784, -0.473961599311505], [34.3131559381372, -0.4695812834403167], [34.31178148736887, -0.4687430747974096], [34.309996091422306, -0.46863742786266305], [34.30784956613008, -0.46695664154483807], [34.30899234092703, -0.465661883782874], [34.312281486986905, -0.4655069244618755], [34.31470031189873, -0.4632251943745411], [34.31709607736344, -0.4617134704915134], [34.31903148337183, -0.461256917746265], [34.32087500139669, -0.4594619858992131], [34.32265475178663, -0.4625068071623757], [34.32350978680531, -0.4667883973061573], [34.326844075044264, -0.4709187054471774], [34.32771852171567, -0.47150690883191326], [34.33065392802589, -0.4719634555169133], [34.33196852332388, -0.4727569044772329], [34.33530462273277, -0.47367432649637664], [34.33384407957957, -0.4748312993849016], [34.33255461823043, -0.47749999863992026], [34.33275979158822, -0.48003839363071243], [34.33405461705409, -0.48335592855430093], [34.333554615694325, -0.4867499987670836], [34.33355461439909, -0.4899999995919664], [34.33400978848855, -0.49153839266020527], [34.33459407518715, -0.49241869933001203], [34.338968522983926, -0.49525689716373983], [34.34295197571564, -0.497245761504393], [34.3437597953325, -0.5000383885660563], [34.345594081024046, -0.5019186905288642], [34.34925000140046, -0.5032134344630277], [34.35328147513919, -0.5022568822431059], [34.35665591282371, -0.5001686816642428], [34.358240192177924, -0.498038381872336], [34.35844536352004, -0.49649999972680314], [34.35769536272126, -0.49364407696994395], [34.357695362345595, -0.49150000127245136], [34.35724019013868, -0.4897116167948847], [34.3561655621219, -0.48809917825570476], [34.35602890938557, -0.4859075768773286], [34.36003146976949, -0.4855068752848652], [34.36240381043316, -0.4837951712022771], [34.36571853584548, -0.4860068694060241], [34.36828146615692, -0.4860068666852236], [34.37024017450559, -0.48403837671290234], [34.37069534383328, -0.48177410945690374], [34.37265589481241, -0.48091866874902084], [34.37324017000725, -0.4800383751870056], [34.37319533884492, -0.4762500004605489], [34.37188533504095, -0.4706963213630691], [34.372695334523016, -0.46350000075752656], [34.37115589023692, -0.46033132922810244], [34.36903146157789, -0.4587431336783578], [34.36799356157359, -0.4585365864051997], [34.36890316842773, -0.4567134129439933], [34.37203146073944, -0.45650686271861096], [34.373424371794314, -0.45514081857903205], [34.37484411668672, -0.45741866743955967], [34.37696854479509, -0.4587568577549268], [34.38450000140171, -0.4597133947011264], [34.386376021558945, -0.45946339254969565], [34.3887185495538, -0.46150684524281255], [34.39100000121939, -0.4622133871755939], [34.39378145165237, -0.4620068397140558], [34.394972163353394, -0.46106877224617887], [34.39728144999614, -0.4607568359401397], [34.401304702804495, -0.4589633752290845], [34.401304701087376, -0.46425000006289485], [34.4017598684602, -0.4667883636661998], [34.40359163461392, -0.469585125561912], [34.40230469909401, -0.4724999981667001], [34.402509866190535, -0.47578836359854376], [34.40709413618303, -0.48241864091113995], [34.40906616289592, -0.48337649164049445], [34.411468556071014, -0.48550682056506383], [34.41584060232405, -0.4872133579885247], [34.414554706397816, -0.49024999711036704], [34.41455470479098, -0.4942500017923505], [34.41525987172783, -0.49778835749397493], [34.41634413886346, -0.5001686331871543], [34.41871855670156, -0.5022568125349787], [34.42075000153151, -0.5027133520545252], [34.422031445008194, -0.5025068089174929], [34.42340585914848, -0.501668626999763], [34.424528248940426, -0.5001075685671584], [34.43131083188731, -0.4961506997301987], [34.433392002921266, -0.4966917109309662], [34.43590037275274, -0.5009999995649655], [34.43533545196947, -0.5028444928588925], [34.43416972703641, -0.5044708342598812], [34.43034605041945, -0.5042866596121224], [34.426250001744826, -0.5032866544876587], [34.42521855972303, -0.5034931943166964], [34.42134414119696, -0.5063313705023831], [34.42000987286699, -0.5079616440976448], [34.41839507636256, -0.5120426128036801], [34.41559413427126, -0.5135813657591183], [34.414009863681784, -0.5154616408998641], [34.412904822875625, -0.5202432362704748], [34.41175985852209, -0.5222116401184135], [34.41080468665279, -0.527249999850542], [34.41259412655789, -0.5309186360581976], [34.41710348440028, -0.5349294144482103], [34.417509859025394, -0.5362883560022458], [34.418853484309054, -0.5376794122619025], [34.4200941297679, -0.5401686295957139], [34.42200000125256, -0.5409633502557475], [34.42453145034443, -0.5407568057846782], [34.426165976926114, -0.5393299877452445], [34.42803144843961, -0.5390068019752109], [34.431155863451224, -0.5374186202175146], [34.43525398722008, -0.5327707734786793], [34.4384677141787, -0.530463330921021], [34.44353143982844, -0.5297567849578659], [34.44924272941894, -0.5266146518335062], [34.45328143494318, -0.526256774066096], [34.454228679710795, -0.5255588588859816], [34.45628143314746, -0.5255067708396081], [34.460781430904454, -0.5240067657742582], [34.46297213586387, -0.5223186977523122], [34.466531427758355, -0.5210067593274478], [34.47234868636644, -0.5172933451486362], [34.47528142292093, -0.5160067494568886], [34.477655816825305, -0.5141685806631493], [34.48089645127634, -0.5104293663177549], [34.48346189517451, -0.508834076235256], [34.48475000160198, -0.5092132746262926], [34.48603141670401, -0.5090067373036143], [34.48915580487663, -0.5074185706673947], [34.49165580200686, -0.5049185684545847], [34.49399004584212, -0.5015383200768476], [34.49635923520989, -0.49568507251992494], [34.49778140901812, -0.4955067239428917], [34.49865579295779, -0.4949185624123222], [34.50028905179934, -0.49296778534746116], [34.502250001421416, -0.49371325299980706], [34.50453140565093, -0.49350671610888425], [34.507655784173274, -0.49141855436270554], [34.510490021479754, -0.4867883121304751], [34.51184505408342, -0.4822567201426639], [34.51399001448501, -0.4787883105834957], [34.51624000969193, -0.4722883091862021], [34.51624000840466, -0.46871168986634326], [34.514155771144694, -0.4655814505917307], [34.51104827613006, -0.46317280925646936], [34.50903139842706, -0.46099328863751843], [34.5047500010117, -0.45953674988801013], [34.501653043558896, -0.45953674610230044], [34.500990021942314, -0.4577116820943373], [34.49965578136333, -0.4558314377430472], [34.49139641259212, -0.44957062922363766], [34.48977473124725, -0.4473872961011344], [34.48890578810275, -0.445331428334604], [34.48525391547037, -0.4432292645146024], [34.48128140853261, -0.43974325659788094], [34.479489868036346, -0.43908475092574295], [34.477905795303975, -0.4368314185319734], [34.475778189890534, -0.43564248193822824], [34.475240042791775, -0.43246167005347796], [34.474405796934214, -0.43108141552074647], [34.473285969147504, -0.4304440984598212], [34.47090579886103, -0.42658141249968656], [34.463817546599564, -0.42035387344163117], [34.462655803831154, -0.4178314053792134], [34.46078141491699, -0.4167432332451514], [34.45866592526736, -0.4161700423394669], [34.45694521859801, -0.41489077860399975], [34.45674005705892, -0.4114616620014978], [34.4549452181787, -0.4091407757700788], [34.454945217834215, -0.40525000254971266], [34.453990056612874, -0.4004616603867758], [34.451905807874, -0.396331396020098], [34.45014061117848, -0.39556483911879703], [34.45224005598576, -0.39153833945865557], [34.45269521344188, -0.3851465939429682], [34.45365580380192, -0.384418602013733], [34.45624004838968, -0.3805383375362219], [34.456336187270125, -0.37605175945400815], [34.45865579737695, -0.3746685978158989], [34.459740042296254, -0.37278833593397676], [34.45994520036984, -0.3697284240663168], [34.461490038649686, -0.36778833586613524], [34.46210482506236, -0.36520738017959825], [34.46315579139281, -0.3644185939560087], [34.46399003478407, -0.362788333984507], [34.465195190321374, -0.35649999945154454], [34.46504635144045, -0.3554967086165858], [34.4665868075131, -0.3541458529406145], [34.47028140324665, -0.35350675616248933], [34.4777176660742, -0.3497132844409241], [34.48375000168868, -0.35046327695231605], [34.485967663265555, -0.34971327433575417], [34.49078139321423, -0.3492567328433677], [34.49183931492804, -0.3484632669504032], [34.496781390104175, -0.34725672598925184], [34.49823999120822, -0.3457883186812152], [34.499159311526746, -0.34293135620605986], [34.50153138733222, -0.3425067205443117], [34.50899266291563, -0.3386145904425524], [34.51450000179071, -0.33871323865228653], [34.51728137925371, -0.3380067023291874], [34.51940573670859, -0.336418544768392], [34.52062386296479, -0.33371323096629285], [34.52350000165216, -0.3331096318658194], [34.52625000132546, -0.33446322380765836], [34.53003137294075, -0.33425668732299535], [34.53553136980719, -0.3317566809424179], [34.537845990075844, -0.3297132091522804], [34.540125001677495, -0.3296381125517259], [34.5420000015161, -0.32996320372255833], [34.55365401891815, -0.32971318891260004], [34.56202799402164, -0.33206859612234346], [34.5683571902704, -0.33493457168740004], [34.569344312006386, -0.336168499527517], [34.571507371163676, -0.337114516471547], [34.57321865143475, -0.33850663584713175], [34.575086639252866, -0.33878026043759635], [34.57909431943077, -0.34416849047213766], [34.58221865517266, -0.34675662493605025], [34.584718656245514, -0.34775662185625555], [34.58775000180407, -0.34796314404349094], [34.58986869512232, -0.34743937301660305], [34.594750000993585, -0.34921313476659316], [34.604904034786294, -0.3492131214893926], [34.61000000193618, -0.35021311442458697], [34.61103133434868, -0.35000658947988966], [34.613405653134286, -0.3484184580470189], [34.61724261043625, -0.34436446018306793], [34.6203459629087, -0.34346310056368706], [34.623000002087856, -0.3434630969729705], [34.62437500173846, -0.34302539309918334], [34.62724531589337, -0.34346309127079566], [34.628594365627116, -0.3461684438775831], [34.631218680034834, -0.3482565644219268], [34.63433668314634, -0.34903019022857906], [34.635468682020104, -0.3500065590650967], [34.63815143288468, -0.3507931511465975], [34.63946868384102, -0.3517565539931954], [34.64275000157843, -0.35246307008476485], [34.64450000208326, -0.35246306769102265], [34.64709595391471, -0.3517130643247385], [34.6514107436252, -0.3519630582993308], [34.65471869149793, -0.35475653467490015], [34.65846869323115, -0.3570065298922231], [34.66025000163076, -0.3574630460045271], [34.66378130786051, -0.35700652303080865], [34.66634594750258, -0.35521303760302647], [34.66937500174294, -0.3547878154034639], [34.67371870096363, -0.35750651024308994], [34.68250000256733, -0.35796301505321837], [34.684905585962866, -0.35691838867547926], [34.687146190137696, -0.3534292065817768], [34.68883972819727, -0.3521308492732806], [34.69521871295643, -0.35450648248830263], [34.6982500015658, -0.355212992912404], [34.700500002219975, -0.35521298973035953], [34.70153128767194, -0.35500647416707143], [34.708366901766674, -0.350948872423999], [34.70959444332967, -0.3529183642348491], [34.711468721806355, -0.35450646123819907], [34.71550000172956, -0.3557129684063414], [34.720281277469745, -0.3550064495336058], [34.721250001865805, -0.35451271107284454], [34.72500000166743, -0.35596295480467716], [34.72837500188022, -0.3554433903301506], [34.73500000240417, -0.355962940407508], [34.7379055325419, -0.35466833530791647], [34.74106082872789, -0.3517320338568047], [34.743250001905665, -0.35246292848673294], [34.75150404006703, -0.35236198328682905], [34.75396874500301, -0.3542564045476972], [34.75725000228242, -0.3544629080836892], [34.76065550901244, -0.35291831183253825], [34.762405506894886, -0.3514183100380522], [34.76348966222319, -0.3497881807688057], [34.765489658403034, -0.3452881795321197], [34.76744478156153, -0.3379999981644589], [34.76794477973451, -0.334000000539767], [34.76748965208955, -0.3307118211594367], [34.766934240655836, -0.32987499974930246], [34.767739651020555, -0.328788178694392], [34.767749679367284, -0.32651257854557736], [34.77003124689986, -0.32650638297887635], [34.771405492525844, -0.32566830084485354], [34.772444770205276, -0.3229999992742641], [34.7722396430024, -0.32046182344848567], [34.7708394981389, -0.319032802739854], [34.7711947703384, -0.3165000001954684], [34.77051719605809, -0.3147499998019457], [34.771444768882105, -0.3122499998347301], [34.77065549045185, -0.3103316979362867], [34.76875000193792, -0.30953710856738037], [34.76746875740107, -0.30974361331249467], [34.76576035458936, -0.3114618191563811], [34.76555522625599, -0.31300000001658324], [34.76623280045626, -0.314749999818697], [34.765055224108394, -0.3184999998276853], [34.765844506772524, -0.32041830678393035], [34.766895752812886, -0.32104183090967986], [34.76605522419299, -0.3237499994563912], [34.76625032236085, -0.32498741875397225], [34.76444716874975, -0.32489780695480225], [34.762989655668626, -0.32146181811421093], [34.76204851820438, -0.32025972472390035], [34.76173965682184, -0.31821181803155146], [34.75716502650067, -0.31184936506722943], [34.75719478852665, -0.3088557916509463], [34.75904749073105, -0.3009954736568251], [34.763217556041496, -0.2979628997173259], [34.76887500187108, -0.2970877349206748], [34.770613452536054, -0.29743554473279804], [34.771225667382666, -0.297862567115259], [34.77234451723581, -0.30066830029257813], [34.774250001914815, -0.30146288337623944], [34.77578124122561, -0.3012563752520562], [34.779031239329015, -0.3002563708064132], [34.78065547815368, -0.29916829128598293], [34.78565547225272, -0.2944182859383218], [34.78712500193454, -0.29243877972571325], [34.7884712001283, -0.2933398239322256], [34.79133596519165, -0.29890536504322496], [34.792010392728905, -0.3015381657840163], [34.793260393765195, -0.3040381648066639], [34.798344542236514, -0.3121682728027008], [34.801594544903026, -0.31591826926774075], [34.80422121469286, -0.31758980776575363], [34.80509454807749, -0.3191682656176163], [34.81105019136943, -0.3249747538097266], [34.81559455702536, -0.3304182543186071], [34.819250001518576, -0.33221281593645935], [34.82403121715781, -0.3320063082047445], [34.831031212572995, -0.3292562984918563], [34.83415542680385, -0.3274182342664647], [34.83615542431898, -0.3256682321259644], [34.836739555141776, -0.32478813909825377], [34.83691116235364, -0.3233303919117853], [34.83928120710518, -0.3225062868846086], [34.84465541389456, -0.31866822293779173], [34.84625353207582, -0.31677038638267385], [34.848655409018306, -0.31491821848296214], [34.851489531083445, -0.31053813020354276], [34.85623952171954, -0.29928812756981626], [34.856944636478836, -0.2949999952644317], [34.85673951969899, -0.2882118749231577], [34.85590539619025, -0.28683178888644006], [34.855031194365466, -0.28624373519028723], [34.852944640485774, -0.2860983841062257], [34.85268186672404, -0.28487499974062386], [34.85341582144008, -0.2801458441501357], [34.85528119372459, -0.2800062643728049], [34.856155394692216, -0.27941821057010574], [34.8569446323335, -0.27724999988257937], [34.85623951624589, -0.2734618720943707], [34.85340539601235, -0.2678317862667003], [34.849531195756946, -0.2649937272773555], [34.84799436322422, -0.26448634916919356], [34.84615540277233, -0.2618317782056994], [34.84378119865982, -0.2604937190633727], [34.84150000202402, -0.2600372176318596], [34.839814176660234, -0.2605158953575358], [34.836968801523376, -0.2604937094031527], [34.83584459055647, -0.2613317667845972], [34.83496759773188, -0.26292879342108577], [34.8351946609807, -0.25650000122894434], [34.83473954271598, -0.2549618591475678], [34.833281204220555, -0.2534937042072347], [34.830250002090935, -0.25303720041542554], [34.82921879758234, -0.2532436984626795], [34.82780883816268, -0.254512282988852], [34.826623630244015, -0.25428719490427765], [34.82528120884904, -0.25299369297357555], [34.82400000205776, -0.2527871909109822], [34.82209457692542, -0.253581752035736], [34.82135854404678, -0.254564044109068], [34.81873956343188, -0.2462118499929455], [34.817605395334546, -0.24404808984800141], [34.81723956492268, -0.2409618500310579], [34.81519468702329, -0.23651755909846547], [34.81373956775845, -0.23146184722253654], [34.811808963452286, -0.22881305984275987], [34.81148957018881, -0.22721184605082373], [34.81030896480938, -0.22506305869248613], [34.80648957453699, -0.21246184289976858], [34.80455896973044, -0.2085630541844644], [34.80398957703524, -0.2064618414652714], [34.80177427607093, -0.20313744620320515], [34.799655443911384, -0.1988317282157184], [34.797655445791975, -0.1963317261602506], [34.79528122188191, -0.19424365103055205], [34.78950000189274, -0.19278713882467186], [34.787699089175305, -0.19289745739190242], [34.787003573777056, -0.19222954676540036], [34.78515545804276, -0.18958171289881182], [34.78400357645778, -0.18872954354446872], [34.77827430458851, -0.1796374320754548], [34.77665546571016, -0.1753317043006012], [34.77101015655184, -0.16981577867864667], [34.76915547228453, -0.16733169606350048], [34.76729794217499, -0.16642302026246225], [34.761905479103135, -0.16033168852845336], [34.75778124085373, -0.15699359971053567], [34.75278124359759, -0.15574359297406876], [34.750468759106134, -0.15574358982498338], [34.748558813677406, -0.15701213151786172], [34.74675451901357, -0.1567870758482327], [34.745655495487284, -0.1540816720626421], [34.74344477915831, -0.15328707101311687], [34.742239652733154, -0.14721180670075043], [34.74115549909165, -0.14483166725556457], [34.73803125110976, -0.14274357314887146], [34.73534828372761, -0.1427068300255622], [34.73624595492104, -0.1418620028798806], [34.738281250969195, -0.1417564264609612], [34.73965550018247, -0.14091833424236716], [34.7439896490869, -0.13578819231133293], [34.743989648822975, -0.1332118074251002], [34.74307901388616, -0.13178022115611593], [34.74523964682202, -0.129788191627273], [34.74523333849361, -0.1272023038047066], [34.74648964482266, -0.1257881908141954], [34.747194770433836, -0.12224999914269977], [34.746071282984424, -0.11412499983790832], [34.747444768912, -0.10999999951682317], [34.747194768776325, -0.10535914561367422], [34.75019983492188, -0.09897483158424937], [34.7521017166881, -0.09687266029391384], [34.75415548236728, -0.0956683193561022], [34.755489630063785, -0.09403818609412264], [34.75594475503596, -0.09075000098586322], [34.75415548189456, -0.08708168051518042], [34.75103124193347, -0.08499359051422603], [34.746750001936725, -0.08378707567833404], [34.74371875804812, -0.08449358063991849], [34.741718756951904, -0.085493577946458], [34.739094506869804, -0.08708166478275485], [34.73825846031703, -0.08847137494357586], [34.73684450446695, -0.08933166248253292], [34.73459450203767, -0.09208166018555436], [34.73320203552079, -0.09467298159039801], [34.727844494813304, -0.09908165331234355], [34.724603909779994, -0.10282080393656798], [34.723561396716846, -0.10359939985609924], [34.72115409596424, -0.10403703880219402], [34.71872185160814, -0.10218158758445124], [34.71640552072231, -0.09908164190500882], [34.7047812672907, -0.09099352905927784], [34.7015000018095, -0.09003701075863631], [34.69400000187743, -0.0890370001601685], [34.69150000196915, -0.08928699663857805], [34.68946872839092, -0.08974350904025366], [34.68759445497667, -0.09083161292358813], [34.68586147376763, -0.09330931127931204], [34.68321872495698, -0.0934935009348091], [34.67734444460501, -0.09608160277400782], [34.67574632662117, -0.09847943192363406], [34.672510264697706, -0.10196176805554441], [34.67147108313948, -0.10591006513414185], [34.66202810475486, -0.1116815172539996], [34.66106417804122, -0.1121837650293081], [34.658500001788866, -0.11128695067180379], [34.65509593282413, -0.1117869460011833], [34.652750001747556, -0.11103694274850016], [34.65075000193225, -0.11103693999916339], [34.64871870612597, -0.11149345678035949], [34.64584441295345, -0.11308157197822509], [34.64124629171985, -0.1179793984668844], [34.637344404328694, -0.12058156372525013], [34.635010215462074, -0.12346174830346042], [34.6342462842924, -0.12672939182978896], [34.62984439645236, -0.1303315565237407], [34.627050043413774, -0.13477504728338605], [34.62359438992736, -0.13708155060151495], [34.62184438818511, -0.1388315488727108], [34.62051019574862, -0.1407117406693004], [34.620055053830825, -0.1440979856980277], [34.614218687190665, -0.1442434134686954], [34.60752193377176, -0.14712575469438108], [34.60748982451127, -0.14421173455443295], [34.605655631117486, -0.141331533736896], [34.60153132282477, -0.1389933978615464], [34.596750001836625, -0.13828686708012172], [34.5917186757797, -0.1394933858053914], [34.58895188998107, -0.14192284274770187], [34.587654045190284, -0.14253685503794128], [34.5836543322127, -0.1427061969975855], [34.58178133286458, -0.14124337370304166], [34.57796866882457, -0.14124336904027474], [34.57521866734344, -0.1424933657303366], [34.57241074369863, -0.14478683500206907], [34.57141989127554, -0.14485293906740201], [34.569195016422896, -0.1437260721385583], [34.568989871182524, -0.14221171563521195], [34.56728134005853, -0.1404933561554786], [34.563750001522834, -0.13953682368230003], [34.56154194962444, -0.13953682088500918], [34.56028134346731, -0.13849334775182973], [34.557968658939544, -0.13849334494850277], [34.55584432667139, -0.13983148722391125], [34.55326011396633, -0.14296170658353793], [34.55205496434863, -0.1474999996749389], [34.5527601126164, -0.14978829337296465], [34.55642064113356, -0.15471984773486366], [34.55559708938239, -0.15653681316387497], [34.5467186526872, -0.15649333150943026], [34.539844310332725, -0.16108147267308975], [34.53784430848259, -0.16333147070189766], [34.536626180737876, -0.16553678875680958], [34.53221864505306, -0.1662433143945201], [34.53059430148478, -0.16733146426803688], [34.529260082925234, -0.16946169393145502], [34.52905493134501, -0.17277160573269956], [34.527510079825994, -0.17446169406744086], [34.527010079134136, -0.1759616936054531], [34.526451231105035, -0.18000952797438177], [34.52390402093566, -0.18103677263639048], [34.51825000178571, -0.18103676543540495], [34.515844286792685, -0.18208145112258242], [34.5137600624872, -0.18446168741239743], [34.51305490954104, -0.1867499986954374], [34.513088004667665, -0.18866750287272777], [34.5101734368499, -0.19158885366562858], [34.50775000163997, -0.19078675224297117], [34.50669926139477, -0.1908970376384785], [34.50278137369619, -0.18699328013598374], [34.500298430545584, -0.18629644089460498], [34.49928137527608, -0.1854932760962707], [34.49723979343828, -0.18508475784669107], [34.49594511405211, -0.1808941091964341], [34.49573996100549, -0.17571168027693873], [34.494905734324895, -0.17458143267239215], [34.493531377326285, -0.17374326944810134], [34.489468624138, -0.17374326476453525], [34.48676020335964, -0.17608474611690253], [34.48509426032276, -0.17683142396987633], [34.484052688484844, -0.1781473993311108], [34.4807500013164, -0.17753671862617115], [34.47625000197776, -0.17753671308892333], [34.470945144211626, -0.17839781784440595], [34.470739989380384, -0.17671166834219681], [34.46959501943233, -0.1747432419504107], [34.46873999066362, -0.17171166666918186], [34.46490575932467, -0.16458140659007728], [34.46178139154433, -0.16249323334840923], [34.45775000177625, -0.16203669045905547], [34.454094234939205, -0.16383139713674605], [34.450151363247606, -0.16795662282980647], [34.44125732870706, -0.17238532931224623], [34.43412500150883, -0.17396188253045752], [34.43203140562639, -0.17299320025262901], [34.42750000133909, -0.17203665416635236], [34.42296859365616, -0.17224319023882426], [34.420651349329965, -0.17395659033060298], [34.41609420189337, -0.17583136500878968], [34.411094197084516, -0.18233136085883714], [34.409084074193224, -0.18634994979562983], [34.40528141820922, -0.18224317113509025], [34.401750001637346, -0.1815366238767597], [34.40021858278344, -0.1819931656320973], [34.39844006521268, -0.183348685358709], [34.39586865634975, -0.18406037790765575], [34.392000001646444, -0.1835366125475103], [34.38641067842793, -0.18578660613295117], [34.383750001560855, -0.18528660302323155], [34.3809685741306, -0.18599314503122985], [34.37784416927671, -0.18808133363349602], [34.37499604914174, -0.19097916332625572], [34.37387500151461, -0.19130607944348785], [34.36859603273045, -0.19053658569569648], [34.36600000138365, -0.18953658272527485], [34.364250001658085, -0.18953658073700694], [34.359968564639935, -0.19124312293784493], [34.357040928838856, -0.19316150743233435], [34.35578144038988, -0.19199311863504662], [34.35400000136887, -0.1915365691487101], [34.350000001543926, -0.1915365646477433], [34.34771855936214, -0.19199311017609758], [34.346344143637225, -0.1928313083914545], [34.34409414167607, -0.19533130652306585], [34.34050987111542, -0.20071160860845932], [34.34030470305768, -0.2027500003291721], [34.34115349432905, -0.20649999980005873], [34.34080470265588, -0.20839071976759949], [34.33930470047006, -0.21149999948690412], [34.33950986787783, -0.21528839158200538], [34.341594136922325, -0.21816869510829476], [34.34349485954074, -0.21896241288232113], [34.34434413877475, -0.2201686928717191], [34.34635355020198, -0.2211795287952957], [34.348594141588194, -0.22516868959515096], [34.35045167025802, -0.22682735758064604], [34.35209414368235, -0.22991868674959143], [34.3568441467597, -0.2354186829955041], [34.361746031790446, -0.23827084611466814], [34.36371856288103, -0.24025687288349284], [34.37275000157855, -0.24221340940791042], [34.37803143408111, -0.2405068577553513], [34.382042037538135, -0.23683678125550472], [34.383009908839696, -0.2395383722859279], [34.385304746114656, -0.24235926298205265], [34.38600991036019, -0.25028837173787616], [34.388304747321655, -0.25423259205673443], [34.389759911855215, -0.2622883696473086], [34.391225215550506, -0.2643627600827717], [34.392509913418785, -0.2682883680211022], [34.39359417124712, -0.26991865306694973], [34.39498071976468, -0.27060939716856747], [34.394554750753905, -0.27325000041738867], [34.39562018668765, -0.275581178497945], [34.39600991535919, -0.27778836684267055], [34.398094173154576, -0.28066864926865565], [34.400492184692574, -0.2816116866661399], [34.39880475169046, -0.2898940809506561], [34.3961260717227, -0.29528661780730886], [34.39346857130105, -0.2959931587642988], [34.391594165084584, -0.29783134503381764], [34.39075990507024, -0.29921163040668536], [34.390451062189996, -0.30300943616844805], [34.388594161486, -0.30433134262674627], [34.38561679518183, -0.30780056890427243], [34.38352190347183, -0.30699123907471765], [34.38103143798237, -0.304993145490884], [34.380000001221696, -0.30478659918480255], [34.37650000165976, -0.30453659516884746], [34.373844149323396, -0.30583133061428724], [34.37300988468764, -0.3072116221156717], [34.372804716975715, -0.30926740639980904], [34.37125988160281, -0.312211621553565], [34.371277860069505, -0.31843119790672986], [34.365718556971565, -0.319493129402137], [34.36384413865958, -0.32083132254259084], [34.361996015775794, -0.32397915641251357], [34.358509864197735, -0.3282116166033977], [34.35640482823095, -0.33399319783635467], [34.35548952562451, -0.3349889186278048], [34.35190395220757, -0.3367865675051162], [34.34896854790186, -0.3367431120403703], [34.343844119137984, -0.33983130671907635], [34.34275984479388, -0.3417116091867911], [34.34255467376478, -0.3450000008666208], [34.34325984357475, -0.3472883892435684], [34.344461644533745, -0.3487477489674228], [34.342094115673824, -0.350081305419258], [34.34004974876043, -0.35252481225396026], [34.338314174441514, -0.35318327336851374], [34.33700000145305, -0.35278655082358984], [34.33550000144586, -0.3531401025131398], [34.33425000137702, -0.3527865477667422], [34.3324685392179, -0.35299309507734294], [34.32934410475105, -0.3548312954005161], [34.327745981403076, -0.35647913045749996], [34.324344100114125, -0.35883129143959075], [34.323259819726864, -0.36071160132309], [34.32255464599073, -0.3647499984978872], [34.322554645393815, -0.36675000068683056], [34.323316191699696, -0.3687499997345914], [34.32173148146314, -0.37137762518480427], [34.320281470788686, -0.37074308271295336], [34.315750001542455, -0.37003652746712773], [34.31271852892453, -0.3707430750866232], [34.31059408661288, -0.37233128087688194], [34.30955462881524, -0.37474999876868653], [34.31027413746864, -0.3794366675982958], [34.3095546268103, -0.38124999754101824], [34.309759799381766, -0.3860384044787428], [34.31171852630562, -0.3880069256492721], [34.31418317886683, -0.38870009311368564], [34.312594084348945, -0.3898312824385247], [34.31163162654109, -0.39211028949464866], [34.308844080576115, -0.39358127960885514], [34.30675979297565, -0.396711594177031], [34.30634592855651, -0.39954091984693774], [34.305740211454726, -0.3969615947926996], [34.30278148096044, -0.3939930652588458], [34.30100000112398, -0.3935365115513801], [34.29550000168736, -0.39328650560718675], [34.293468518227925, -0.39374305592447184], [34.291594067103304, -0.39508126641686236], [34.290759777077376, -0.3964615877622419], [34.29057138382705, -0.39962233016331716], [34.288137954919584, -0.3958191668997054], [34.28894540193279, -0.3929999982328039], [34.288945401133624, -0.39050000089395437], [34.28824022610268, -0.3879615875376365], [34.28648569054148, -0.38545142305995456], [34.28808296650322, -0.3841520113847465], [34.289468517429654, -0.385006947893428], [34.2915000012424, -0.3854634987652648], [34.294781483339, -0.38500694258933843], [34.29590593032829, -0.3841687296583858], [34.296990215876995, -0.3822884080210952], [34.2978930146727, -0.37843485375019154], [34.30178147969222, -0.37825693563061863], [34.3056559211848, -0.3761687222194265], [34.30669537681009, -0.37349999729291167], [34.30649020295323, -0.36821159637191747], [34.3049059193753, -0.36583127658612474], [34.304031476970636, -0.36524306632455017], [34.30209872919654, -0.3649564692590161], [34.30095028776128, -0.36402478307482583], [34.300240206977676, -0.3622115924611766], [34.29800217394189, -0.3594778490028344], [34.298740207415136, -0.35803840728349345], [34.29894537986732, -0.3557500002732602], [34.29799020664913, -0.3517115921661042], [34.29540592285874, -0.34733126933259284], [34.29315592409649, -0.34508126759841995], [34.29228147961705, -0.3444930545446943], [34.29049232106909, -0.3443381002242743], [34.289655926340345, -0.3433312648853019], [34.28778148112785, -0.34224305003668587], [34.285750001574115, -0.34203649482847187], [34.282844071618456, -0.3430812595620764], [34.27980060245186, -0.34739674592390135], [34.27725000131541, -0.3467864857894128], [34.275500457164796, -0.346986641807844], [34.27569540123033, -0.34400000001124276], [34.27519540072078, -0.3413559539147186], [34.276490224632724, -0.33953841591862144], [34.277195397292644, -0.3354999983090216], [34.27674022192412, -0.3307115829578853], [34.27590593396576, -0.3293312545060671], [34.27464653858406, -0.3285704301831344], [34.2730314854313, -0.326743035424693], [34.27025000138141, -0.3262864782565822], [34.26699373441862, -0.32653647483917986], [34.268990227632436, -0.32253841910723713], [34.26969540057904, -0.31824999938344395], [34.26949022543637, -0.31671157972894565], [34.26865593675804, -0.3153312490457511], [34.267531486497624, -0.31449303003257173], [34.264159666500426, -0.31453647180885735], [34.26479841986807, -0.31282741460424734], [34.26653148690245, -0.31250697077720735], [34.26940593534965, -0.31041875003565517], [34.26999022326797, -0.30953841946665156], [34.27119539594778, -0.3062499991343416], [34.27099022112912, -0.30421158049848007], [34.27040593340107, -0.3033312503994275], [34.26926073790931, -0.30256541204434406], [34.268405934387594, -0.3010812487950302], [34.26575000125479, -0.30003647337398737], [34.26346851618592, -0.3002430259644727], [34.26141062563088, -0.3015364688283198], [34.25850391658514, -0.3021373748504229], [34.25700000143175, -0.30178646419672844], [34.25256653926422, -0.3023231979071479], [34.252009954888024, -0.3005613601866916], [34.25315594544917, -0.29991876215499264], [34.25399023657201, -0.29878842504192027], [34.25409735115524, -0.29425370510887533], [34.25469540973839, -0.2922499991567565], [34.25399023396791, -0.28821157374099204], [34.25298097396012, -0.28696354011829084], [34.2573034355275, -0.2858240479573771], [34.26053148682167, -0.2857569767192212], [34.26140593700444, -0.28516875600814257], [34.26249022471788, -0.283288422393092], [34.26294539858814, -0.2812499991655892], [34.26243386872357, -0.2787499998015333], [34.263010737276744, -0.275434593644156], [34.26740593056917, -0.27266875158563525], [34.268798600233204, -0.2709537916293611], [34.27065592765191, -0.2701687492867142], [34.27183634135105, -0.26780189376087754], [34.27299021124462, -0.2665384178250365], [34.27299021042391, -0.262461581647793], [34.27224021046103, -0.25971158097788527], [34.27065592563089, -0.2565812504286386], [34.26965592613223, -0.25533124962233356], [34.268281480875984, -0.2544930305206892], [34.263750001434346, -0.254286471062431], [34.261947438844636, -0.25464712030911174], [34.26040593235893, -0.25133124270754315], [34.25735381103244, -0.25028646434180063], [34.2569902228377, -0.2477115747281928], [34.25290593624935, -0.23983123715360855], [34.249905937871894, -0.23608123488177366], [34.24703148776598, -0.23449300989459873], [34.244218513960185, -0.23449300717572968], [34.24106611235621, -0.2366233341330396], [34.23968582636244, -0.23701498968239842], [34.2332814928969, -0.23199299674656496], [34.22975000144231, -0.2315364356923244], [34.22746850760706, -0.23199299123661626], [34.22655059428739, -0.23264668936612795], [34.22400000155701, -0.23253642982470984], [34.21996850452853, -0.233992984194917], [34.21759404166427, -0.23633121129527138], [34.216554565643825, -0.23874999859992183], [34.21673919578698, -0.24193444699272446], [34.215531500545346, -0.2409929801190721], [34.21338795304682, -0.24095904520437994], [34.2119059654889, -0.23808120740134125], [34.20968393743029, -0.23712331157227648], [34.20994544296405, -0.2350000002370993], [34.20892402340173, -0.23285841067384608], [34.208740265192525, -0.2309615557633246], [34.207106065438204, -0.22879763595851618], [34.20524026738397, -0.2249615544145376], [34.204655968788046, -0.2240812022696281], [34.20197778359321, -0.2221249999649872], [34.203655969065515, -0.22091879822353439], [34.205240266296315, -0.21753844481052212], [34.205445443736345, -0.21475000063070587], [34.2046559675377, -0.21283120241632272], [34.202396557865484, -0.2115703622931824], [34.20140596930956, -0.21008119993430582], [34.19940597045029, -0.20858119843872813], [34.19703150516649, -0.20724296282720955], [34.19525000139634, -0.2070364007888982], [34.19136319097213, -0.20831379343202558], [34.188665127024514, -0.208403516247393], [34.18901079017028, -0.207434642266589], [34.190740277599865, -0.2057884505477754], [34.191606074364444, -0.20320237403493643], [34.19275409189289, -0.2020209739326922], [34.19440597336348, -0.20116880457843453], [34.19499027296334, -0.2002884487684238], [34.19519545111911, -0.19885932217296692], [34.196240271266504, -0.19753844864925507], [34.19650408851563, -0.19627097141659797], [34.19815596979196, -0.19516880222421928], [34.19899026827292, -0.19403844752169924], [34.199195446166584, -0.1920000002805975], [34.19824026814963, -0.18896155163768222], [34.19665596994761, -0.1873311964645626], [34.1942815048499, -0.18599296021879025], [34.18946849598068, -0.1859929558121466], [34.18671849488468, -0.1872429532974663], [34.185007220565055, -0.18863507081655767], [34.18196849305235, -0.188992948953209], [34.18009402100441, -0.19033118474897717], [34.178509716365234, -0.19221154358072806], [34.177738112588976, -0.1954842544445211], [34.17600000112757, -0.19503638175375249], [34.172718489251885, -0.1952429405836329], [34.17071848846242, -0.1959929387837451], [34.16886118798315, -0.1978086401421938], [34.16587403801876, -0.19678637189720888], [34.162781517029735, -0.19399293169251688], [34.160000001433744, -0.1937863661958193], [34.15771848366619, -0.1944929271771574], [34.15459400293157, -0.19633116721376473], [34.15300969270943, -0.1984615341183993], [34.15255450962829, -0.201103222688931], [34.150343999273, -0.20283116438489898], [34.14919550904448, -0.20478635585809377], [34.14840328499293, -0.2047863550968103], [34.14724031568531, -0.2017115326702435], [34.14435224208742, -0.19862682466299816], [34.143490318102934, -0.19621153121822182], [34.140906008688106, -0.1930811582069067], [34.138781525659084, -0.1912429104825403], [34.135285368179574, -0.19074999987875635], [34.1359903238279, -0.1897884708088418], [34.13619550617968, -0.18725000049413804], [34.13540601161879, -0.18533115463441127], [34.134156012134326, -0.1843311535909597], [34.132031527568216, -0.18299290455646255], [34.13025000131646, -0.18278633780756603], [34.12771847343295, -0.18349290078815894], [34.124718472328006, -0.18499289817174022], [34.123404281193956, -0.18624363814696798], [34.121567795204676, -0.1851500314874213], [34.123156019476156, -0.1844188534265502], [34.12374033337744, -0.1835384755440714], [34.12544551487575, -0.17824999956928206], [34.12374033191407, -0.1722115242407726], [34.121656018824645, -0.16883114531200832], [34.118906020286325, -0.16583114344783226], [34.11728153183933, -0.16474289176808188], [34.115500001294436, -0.16453632397061807], [34.10987406088652, -0.16578631884260273], [34.10840602692614, -0.16383113656913725], [34.10644553025974, -0.16303631559482692], [34.10540602860596, -0.16058113465686558], [34.10238314860587, -0.15731574066858958], [34.10224034803158, -0.1554615164545648], [34.100906030818685, -0.15308113172011756], [34.09891364131407, -0.1517192670951453], [34.09740603273665, -0.14933112945157967], [34.09535511896312, -0.14754236905483678], [34.095125582240726, -0.14678859042795092], [34.09703225018731, -0.1469636930855877], [34.09975000109116, -0.14796369059811565], [34.10378153576715, -0.1475071197389305], [34.10490602778653, -0.14666886543336305], [34.10578623031482, -0.14455624086296495], [34.11253153241638, -0.1412571123019879], [34.1151560204486, -0.13916885883369928], [34.11769551633463, -0.13324999881445235], [34.117490332608696, -0.12996152240868356], [34.116684017607184, -0.12887332773480814], [34.116945516279635, -0.12723267439219924], [34.11885509708013, -0.12295761939875907], [34.12017441751972, -0.12214113001320864], [34.1210843118137, -0.12315093299208103], [34.12175967430844, -0.12603847678319835], [34.1227596749994, -0.12778847642292399], [34.12496847500075, -0.13000710164649973], [34.12675000129474, -0.13021366562065567], [34.12915390695239, -0.12971366337354556], [34.13246847757888, -0.13175709511793124], [34.13525000135784, -0.13196365761558812], [34.138781522697855, -0.13125708959170404], [34.140336975686985, -0.12989617285355232], [34.141781521529566, -0.12950708697248017], [34.14375411709568, -0.12752100894317647], [34.15340599384196, -0.12141883328740048], [34.153990299906305, -0.12053846461989894], [34.15494547967549, -0.11649999963200458], [34.15474029871233, -0.11496153533490445], [34.15340599319363, -0.11333116647213588], [34.14974278949009, -0.11163503823633977], [34.14678151893857, -0.10949291734000718], [34.14225000129554, -0.10878634897884396], [34.13846848066845, -0.10924291001170779], [34.136904104460164, -0.11036726662324697], [34.130750001283076, -0.11003633810307194], [34.126670112480134, -0.1108523953354904], [34.124531526855634, -0.10899289789434935], [34.123500001183146, -0.10878633129947067], [34.11726090823918, -0.1094343307238275], [34.117798129803596, -0.10724594097516105], [34.121656013848444, -0.10441885453825178], [34.1229339432816, -0.10262677120765704], [34.12512500123384, -0.10193863563273076], [34.13100000113668, -0.10296366167860711], [34.135031523041526, -0.102757092907513], [34.139281521432046, -0.1012570892093478], [34.14203152035364, -0.09950708681444814], [34.143405999037995, -0.09841884013575654], [34.14474030603242, -0.09628846805098627], [34.14544548678549, -0.0942499976511695], [34.14544548569149, -0.09102431219511524], [34.14715599605663, -0.0896688376224373], [34.148740301978414, -0.08728846643886558], [34.14894548279347, -0.08500000049754444], [34.148240302056635, -0.08221153312861076], [34.145531518521764, -0.07949291620694653], [34.143250001257094, -0.0787863498835352], [34.140449434244395, -0.07889659976407061], [34.137198307689744, -0.07660510288343172], [34.137740310896355, -0.07578847038398198], [34.13794549242123, -0.07325000062227506], [34.13697891697976, -0.0710676886626892], [34.140155999810766, -0.06966884236198322], [34.14290599786797, -0.06691884052049352], [34.14374506331363, -0.0655143856818495], [34.14590599576492, -0.06416883849884711], [34.147240301882135, -0.06228846702375316], [34.147240301728885, -0.058961532857094316], [34.146195483797094, -0.05751733150418738], [34.145155995978364, -0.054831160956910235], [34.14253151902062, -0.05274291353200628], [34.138718482199295, -0.052742910165089536], [34.135594000366105, -0.05458115436841932], [34.132343998222034, -0.05783115207956999], [34.12997053215416, -0.06115969167074354], [34.127066063582404, -0.06362323180191043], [34.11971847510053, -0.0672428936855786], [34.11240390462777, -0.07253632092872268], [34.111445516984425, -0.07259729384459278], [34.11049033377982, -0.06946151938625814], [34.1064060216374, -0.06358113518438575], [34.105531532316576, -0.06299288155680667], [34.10050000121958, -0.06203630994625557], [34.09596846687716, -0.06224287343822455], [34.09091060548233, -0.06503630123164056], [34.08521846311211, -0.06549286441699723], [34.08103225001441, -0.06753629228521964], [34.07796846054837, -0.06799285839878334], [34.07709396200396, -0.0685811162439577], [34.0760096400486, -0.07021150683439656], [34.07555445300231, -0.07249999958489332], [34.076009639700274, -0.0747884927874036], [34.078343962354275, -0.07766888282007699], [34.08095184526367, -0.07899596179841424], [34.08284396502348, -0.08166887995775793], [34.08522495089506, -0.08313711361127395], [34.08425964597079, -0.08546150966235509], [34.083559469898205, -0.0892246384808814], [34.076468459427694, -0.0917428571878974], [34.072343957770286, -0.09433111328382103], [34.070509633784525, -0.09696150509786886], [34.07005444622351, -0.09950000022167343], [34.07050963345928, -0.10128849470679746], [34.07221845760146, -0.10300714626413927], [34.07425000107255, -0.10371371375829212], [34.07886859190533, -0.10343996152826547], [34.0805685965363, -0.10437731819562351], [34.081211200731204, -0.1052477447357658], [34.07903224797916, -0.10628629055533692], [34.070718457021606, -0.10699285245055908], [34.06859395461391, -0.10808111093249163], [34.067647045479916, -0.10925446244687004], [34.06699037229807, -0.10496150442999164], [34.065156049690025, -0.1025811088873749], [34.06305323822417, -0.10094712660694628], [34.06360513881874, -0.0997076499330762], [34.0659060488984, -0.09741889056665252], [34.06666210276662, -0.09566932808673553], [34.068596108966375, -0.09446371881730879], [34.069781545436065, -0.09425714824591067], [34.073656043824485, -0.09166888561829066], [34.07469555124417, -0.08899999868217782], [34.07449036498021, -0.08521150753730877], [34.07224036614055, -0.07771150623358448], [34.07049036727853, -0.07371150548316319], [34.06815604624263, -0.07008111079500605], [34.066281545887435, -0.0689928487901648], [34.06400000114902, -0.06853627707517862], [34.06171845500339, -0.06874284503554037], [34.0578439498576, -0.07133110415219346], [34.05637270024599, -0.07406176271152534], [34.04896845060523, -0.07449283469337967], [34.04577769938874, -0.07768090398548445], [34.04465388815288, -0.07803626013575558], [34.042000001152914, -0.07728625780435977], [34.03778351350627, -0.07767973275847213], [34.036040235276054, -0.0717137473916341], [34.03903155508113, -0.07150717320539293], [34.04240606209526, -0.06966890510908404], [34.04424038821187, -0.06628850285361382], [34.04457740004153, -0.064098114213338], [34.045906059646704, -0.0634189030430301], [34.047286266912366, -0.061556285670204325], [34.04871845073388, -0.06250716548232074], [34.05175000114074, -0.06346373371913973], [34.054031549935914, -0.06325716115295231], [34.055531549413566, -0.0625071599407799], [34.056406053190365, -0.061918896510447394], [34.058490376329246, -0.05853849831194007], [34.05944054797668, -0.054275379782124426], [34.06383940275801, -0.05146372308681188], [34.06703154535129, -0.05100715057147969], [34.06990604442026, -0.049668888078371734], [34.071990364846535, -0.04628849381901518], [34.07344554980711, -0.04099999973300614], [34.072740364013114, -0.03621150658333495], [34.0712403650179, -0.031211505844752244], [34.06990604391478, -0.029581111822599062], [34.06853154452591, -0.028742850617262797], [34.065750001178, -0.02828627859354498], [34.06250000112656, -0.02868646539515297], [34.05925000116774, -0.027786272845129592], [34.054750001190946, -0.027786268886214393], [34.05321845274216, -0.028242838108845772], [34.052058599096405, -0.02926103258473297], [34.05000000118301, -0.029036264726249088], [34.04809394501653, -0.029831098148229932], [34.04584394374075, -0.032331096611679135], [34.044259615696504, -0.034961496146638155], [34.04405442694556, -0.03725000049934691], [34.0442596156032, -0.03828850377962492], [34.045304427883856, -0.03960936626776046], [34.0455096165514, -0.041038503436649124], [34.04634394367939, -0.042168902878261735], [34.047724035532895, -0.042858411131026085], [34.0487416271357, -0.04488806698514591], [34.04734394421083, -0.045581097686900544], [34.045759616405995, -0.0477114968611633], [34.045304427582906, -0.04975000016115709], [34.045861776891186, -0.051319100326114385], [34.04434394246194, -0.05208109556686595], [34.04375961479456, -0.05296149574025353], [34.043554425704095, -0.05478560514766274], [34.04274038867328, -0.05196149630212596], [34.039490390985094, -0.04546149515478737], [34.03503155575646, -0.040992823522402425], [34.03258940977918, -0.04078624965156138], [34.03103155705927, -0.039492820352099035], [34.02825000114993, -0.03878624592068249], [34.02396844297717, -0.03974281475249452], [34.02234392928168, -0.041081082349843145], [34.02168799466963, -0.04232388657848035], [34.01820456291956, -0.04244552614639523], [34.01550000111796, -0.041536235078330895], [34.013972684905774, -0.041691893588033165], [34.014445600638076, -0.04024999985056759], [34.01449041022152, -0.03621148683336341], [34.01340607840764, -0.03383107725722515], [34.01188655980936, -0.032713767977622016], [34.01403156249793, -0.03225719299212866], [34.014906077447044, -0.03166892184483424], [34.01574040916566, -0.03028851255385036], [34.016195598841506, -0.028499998711382264], [34.01599040877786, -0.023711487328326245], [34.01324041084209, -0.017711486516864897], [34.0102751087632, -0.01313708828637916], [34.00999041334462, -0.011961485618528842]]]}}]}